name_supermarkt,address,lat,long,key_words,codes,postal_code,url2,urls,place,popularity_percent_normal
Migros Supermarkt,"Zrcherstrasse 15, Birmensdorf",47.3543302,8.4368917,"['grocery_or_supermarket', 'supermarket', 'food', 'point_of_interest', 'store', 'establishment']",ChIJI8HnhsoOkEcRtrizPct-sG0,8903,https://filialen.migros.ch/de/migros-supermarkt-birmensdorf,https://maps.google.com/?cid=7903956757413869750,_cid=7903956757413869750,65.85714285714286
Coop Supermarkt Birmensdorf,"Zrcherstrasse 13a, Birmensdorf",47.3536614,8.4367457,"['supermarket', 'grocery_or_supermarket', 'food', 'point_of_interest', 'store', 'establishment']",ChIJ0YCpYsoOkEcRNz3Ngc-ZFXg,8903,https://www.coop.ch/de/standorte/coop-supermarkt-birmensdorf/1508_POS,https://maps.google.com/?cid=8652991375577267511,_cid=8652991375577267511,53.66666666666666
Lidl Schweiz,"Grubenstrasse 28, Zrich",47.3617687,8.51472,"['supermarket', 'convenience_store', 'grocery_or_supermarket', 'home_goods_store', 'food', 'point_of_interest', 'clothing_store', 'store', 'establishment']",ChIJbRRqLvMJkEcR_mqMiGkBWaw,8045,https://www.lidl.ch/,https://maps.google.com/?cid=12418959000224951038,_cid=12418959000224951038,65.9047619047619
Coop Zrich Schweighofstrasse,"Friesenbergpl. 3, Zrich",47.36114999999999,8.5064963,"['supermarket', 'grocery_or_supermarket', 'food', 'point_of_interest', 'store', 'establishment']",ChIJ7UVsQo4JkEcRwQUFGjw25xI,8045,http://www.coop.ch/pb/site/vstinfo/node/76518709/Lde/index.html?#id=1238,https://maps.google.com/?cid=1362117044065338817,,
Migros Supermarkt,"BRUNAUPARK, Giesshbelstrasse 65, Zrich",47.35838589999999,8.517647199999999,"['grocery_or_supermarket', 'supermarket', 'food', 'point_of_interest', 'store', 'establishment']",ChIJj0lFi-0JkEcRhd1Rz4cxhXc,8045,https://filialen.migros.ch/de/migros-supermarkt-zuerich-brunaupark,https://maps.google.com/?cid=8612344321784536453,_cid=8612344321784536453,55.55555555555556
Coop Supermarkt Zrich Sihlcity Supermarkt,"Kalanderpl. 1, Zrich",47.3576232,8.5231751,"['supermarket', 'grocery_or_supermarket', 'food', 'point_of_interest', 'store', 'establishment']",ChIJFwx7xe8JkEcRDrrE0f9X6mg,8045,https://www.coop.ch/de/standorte/coop-supermarkt-zuerich-sihlcity-supermarkt/2848_POS,https://maps.google.com/?cid=7559951680742406670,_cid=7559951680742406670,53.83561643835616
Allegrotto Supermarket ( Online Order ),"Bederstrasse 102, Zrich",47.36174159999999,8.5258785,"['grocery_or_supermarket', 'food', 'point_of_interest', 'store', 'establishment']",ChIJRWdDzv4JkEcRkN3YKey1rEE,8002,https://buyfood.ch/menu-allegrotto-supermarket,https://maps.google.com/?cid=4732357334378536336,,
migrolino Zrich Waffenplatz,"Waffenplatzstrasse 40, Zrich",47.3595129,8.5266093,"['supermarket', 'grocery_or_supermarket', 'food', 'point_of_interest', 'store', 'establishment']",ChIJm5NFmvoJkEcR09JW1-3sOxc,8002,http://www.migrolino.ch/,https://maps.google.com/?cid=1674192192762467027,_cid=1674192192762467027,49.25490196078432
migrolino Zrich Waffenplatz,"Waffenplatzstrasse 40, Zrich",47.3595097,8.5266129,"['supermarket', 'grocery_or_supermarket', 'food', 'point_of_interest', 'store', 'establishment']",ChIJm5NFmvoJkEcR09JW1-3sOxc,8002,http://www.migrolino.ch/,https://maps.google.com/?cid=1674192192762467027,_cid=1674192192762467027,49.25490196078432
migrolino Zrich Waffenplatz,"Waffenplatzstrasse 40, Zrich",47.3595094,8.5266133,"['supermarket', 'grocery_or_supermarket', 'food', 'point_of_interest', 'store', 'establishment']",ChIJm5NFmvoJkEcR09JW1-3sOxc,8002,http://www.migrolino.ch/,https://maps.google.com/?cid=1674192192762467027,_cid=1674192192762467027,49.25490196078432
Shopino.ch,"Uetlibergstrasse 109, Zrich",47.36112019999999,8.5174614,"['convenience_store', 'food', 'point_of_interest', 'store', 'establishment']",ChIJV4R2APMJkEcR8Z53qNlbscw,8045,http://www.shopino.ch/,https://maps.google.com/?cid=14749671245007527665,,
Coop City Zrich Sihlcity,"Kalanderpl. 1, Zrich",47.3581442,8.5225083,"['department_store', 'point_of_interest', 'store', 'establishment']",ChIJp3j71fEJkEcRBzbWCpR8iMg,8045,https://www.coop.ch/de/services/standorte-und-oeffnungszeiten/detail.html/2492/,https://maps.google.com/?cid=14449936379697051143,_cid=14449936379697051143,45.04545454545455
BioKitchen GmbH,Zrich,47.36013759999999,8.5293292,"['grocery_or_supermarket', 'food', 'point_of_interest', 'store', 'establishment']",ChIJVVVVVfoJkEcRuoCHSKdHu6E,8002,http://www.biokitchen.ch/,https://maps.google.com/?cid=11653987244553240762,,
Migros Supermarkt,"Tessinerpl. 10, Zrich",47.36413049999999,8.5310291,"['grocery_or_supermarket', 'supermarket', 'food', 'point_of_interest', 'store', 'establishment']",ChIJ8_GqOdYJkEcRlyA5wY3lgh0,8002,https://filialen.migros.ch/de/migros-supermarkt-zuerich-bahnhof-enge,https://maps.google.com/?cid=2126514371067191447,_cid=2126514371067191447,39.45544554455446
Coop Supermarkt Zrich Brotgasse,"Seefeldstrasse 35, Zrich",47.3631746,8.5499358,"['supermarket', 'grocery_or_supermarket', 'food', 'point_of_interest', 'store', 'establishment']",ChIJJXQjWk6nmkcRkGvoO-99oVE,8008,https://www.coop.ch/de/standorte/coop-supermarkt-zuerich-brotgasse/5178_POS,https://maps.google.com/?cid=5882121054778321808,_cid=5882121054778321808,60.583333333333336
Coop Supermarkt Zrich Seefeld,"Seefeldstrasse 123, Zrich",47.3580373,8.5547665,"['supermarket', 'grocery_or_supermarket', 'food', 'point_of_interest', 'store', 'establishment']",ChIJdUL9H02nmkcR9sm4Ipv4OMU,8008,https://www.coop.ch/de/standorte/coop-supermarkt-zuerich-seefeld/2581_POS,https://maps.google.com/?cid=14211381969353755126,_cid=14211381969353755126,53.1
Migros Supermarkt,"Seefeldstrasse 111/113, Zrich",47.358365,8.5541587,"['grocery_or_supermarket', 'supermarket', 'food', 'point_of_interest', 'store', 'establishment']",ChIJs2st406nmkcRAbmB1ZVvu5Y,8008,https://filialen.migros.ch/de/migros-supermarkt-zuerich-hoeschgasse,https://maps.google.com/?cid=10861397615656941825,_cid=10861397615656941825,54.57692307692308
Coop Supermarkt Zrich Tiefenbrunnen,"Seefeldstrasse 199, Zrich",47.3533693,8.559115,"['supermarket', 'grocery_or_supermarket', 'food', 'point_of_interest', 'store', 'establishment']",ChIJcczfo0enmkcRcVGnSsAbTPE,8008,https://www.coop.ch/de/standorte/coop-supermarkt-zuerich-tiefenbrunnen/1246_POS,https://maps.google.com/?cid=17387302774070792561,_cid=17387302774070792561,63.79761904761905
SPAR Supermarkt Zrich Forchstrasse,"Forchstrasse 140, Zrich",47.360411,8.563348999999999,"['supermarket', 'grocery_or_supermarket', 'food', 'point_of_interest', 'store', 'establishment']",ChIJyW4V-zWnmkcRqIhXwo6RgoQ,8032,https://www.spar.ch/,https://maps.google.com/?cid=9548354202310772904,_cid=9548354202310772904,49.8421052631579
migrolino Zrich Hornegg,"Horneggstrasse 3, Zrich",47.3522694,8.5586466,"['supermarket', 'grocery_or_supermarket', 'food', 'point_of_interest', 'store', 'establishment']",ChIJ4zS5ckenmkcRgG7e3h-NwcQ,8008,http://www.migrolino.ch/,https://maps.google.com/?cid=14177768269961653888,_cid=14177768269961653888,31.5
Migros Supermarkt,"Forchstrasse 260, Zrich",47.3576042,8.5716275,"['grocery_or_supermarket', 'supermarket', 'food', 'point_of_interest', 'store', 'establishment']",ChIJvSPwpTGnmkcRfQMgzGhOoYI,8008,https://filialen.migros.ch/de/migros-supermarkt-zuerich-burgwies,https://maps.google.com/?cid=9412890908189262717,_cid=9412890908189262717,52.94444444444444
Coop Pronto Shop,"Witikonerstrasse 15, Zrich",47.3639816,8.5670317,"['supermarket', 'grocery_or_supermarket', 'food', 'point_of_interest', 'store', 'establishment']",ChIJV-0RKDWnmkcReHFRQHO9q2M,8032,https://www.coop-pronto.ch/de/standort/zuerich-klusplatz/,https://maps.google.com/?cid=7182042333470355832,_cid=7182042333470355832,44.19607843137255
Migros Supermarkt,"Witikonerstrasse 293, Zrich",47.35909299999999,8.5856,"['grocery_or_supermarket', 'supermarket', 'food', 'point_of_interest', 'store', 'establishment']",ChIJVbosGiqnmkcRaO1Fr_17AEQ,8053,https://filialen.migros.ch/de/migros-supermarkt-zuerich-witikon-zentrum,https://maps.google.com/?cid=4900052724076637544,_cid=4900052724076637544,53.04166666666666
Coop Supermarkt Zrich Witikonerstrasse,"Witikonerstrasse 409, Zrich",47.3602256,8.594670899999999,"['supermarket', 'grocery_or_supermarket', 'food', 'point_of_interest', 'store', 'establishment']",ChIJf599CtOmmkcRWHiWHxYCYGA,8053,https://www.coop.ch/de/standorte/coop-supermarkt-zuerich-witikonerstrasse/1416_POS,https://maps.google.com/?cid=6944552919447795800,_cid=6944552919447795800,51.35897435897436
ALDI Zrich,"Witikonerstrasse 279, Zrich",47.3587468,8.5855994,"['supermarket', 'grocery_or_supermarket', 'food', 'point_of_interest', 'store', 'establishment']",ChIJxXEJCJmnmkcR0vOQ6iIwg8g,8053,https://www.aldi-suisse.ch/de/,https://maps.google.com/?cid=14448444956057072594,_cid=14448444956057072594,64.62820512820512
migrolino Birmensdorf,"Industriestrasse 1, Birmensdorf",47.3654398,8.429690599999999,"['supermarket', 'grocery_or_supermarket', 'food', 'point_of_interest', 'store', 'establishment']",ChIJ4Q2NTqUOkEcRdJ334CCgdqg,8903,http://www.migrolino.ch/,https://maps.google.com/?cid=12139065908697472372,_cid=12139065908697472372,53.05343511450382
Migros Supermarkt,"Zrcherstrasse 8, Uitikon",47.3682327,8.462667099999999,"['grocery_or_supermarket', 'supermarket', 'food', 'point_of_interest', 'store', 'establishment']",ChIJCUfywF4JkEcRk_49-0QlaqM,8142,https://filialen.migros.ch/de/migros-supermarkt-uitikon-waldegg-2,https://maps.google.com/?cid=11775265153916731027,_cid=11775265153916731027,51.888888888888886
Coop Supermarkt Uitikon Waldegg,"Zrcherstrasse 1, Uitikon",47.3676719,8.461705199999999,"['supermarket', 'grocery_or_supermarket', 'food', 'point_of_interest', 'store', 'establishment']",ChIJ7SJ3VA0JkEcR8riOqfBvUIg,8142,https://www.coop.ch/de/standorte/coop-supermarkt-uitikon-waldegg/5037_POS,https://maps.google.com/?cid=9822473866722588914,_cid=9822473866722588914,51.708333333333336
Volg,"Zrcherstrasse 44, Uitikon",47.3703921,8.4553034,"['supermarket', 'grocery_or_supermarket', 'food', 'point_of_interest', 'store', 'establishment']",ChIJnaspdFcJkEcRMIqwjFvMxEI,8142,https://www.volg.ch/standorte-oeffnungszeiten/detail/volg-uitikon-waldegg/?tx_kochvolgstores_storedetail%5Blocation%5D=8905%20Arni%2C%20Schweiz&tx_kochvolgstores_storedetail%5Blongitude%5D=8.4258515&tx_kochvolgstores_storedetail%5Blatitude%5D=47.3185583&tx_kochvolgstores_storedetail%5Bopen%5D=,https://maps.google.com/?cid=4811194995513002544,_cid=4811194995513002544,52.96629213483146
Coop Supermarkt Zrich Triemli,"In der Ey 85, Zrich",47.370577,8.4921401,"['supermarket', 'grocery_or_supermarket', 'food', 'point_of_interest', 'store', 'establishment']",ChIJU5wHWdULkEcRVLrX-Y3gI88,8047,https://www.coop.ch/de/standorte/coop-supermarkt-zuerich-triemli/2580_POS,https://maps.google.com/?cid=14926020490422630996,_cid=14926020490422630996,49.52564102564103
migrolino Triemli,"Birmensdorferstrasse 484, Zrich",47.3685802,8.496631500000001,"['supermarket', 'grocery_or_supermarket', 'food', 'point_of_interest', 'store', 'establishment']",ChIJVUL56IAJkEcRDXaPF7oDxp8,8055,http://www.migrolino.ch/,https://maps.google.com/?cid=11512893595213329933,_cid=11512893595213329933,20.01515151515152
Migros Supermarkt,"Birmensdorferstrasse 320, Zrich",47.3699559,8.508720799999999,"['grocery_or_supermarket', 'supermarket', 'food', 'point_of_interest', 'store', 'establishment']",ChIJlyh8cScKkEcRY3M2wmnjbVI,8055,https://filialen.migros.ch/de/migros-supermarkt-zuerich-wiedikon-m-maert,https://maps.google.com/?cid=5939653526940971875,_cid=5939653526940971875,55.0
Migros Supermarkt,"Birmensdorferstrasse 320, Zrich",47.3699558,8.5087195,"['grocery_or_supermarket', 'supermarket', 'food', 'point_of_interest', 'store', 'establishment']",ChIJlyh8cScKkEcRY3M2wmnjbVI,8055,https://filialen.migros.ch/de/migros-supermarkt-zuerich-wiedikon-m-maert,https://maps.google.com/?cid=5939653526940971875,_cid=5939653526940971875,55.0
Kiosk,"Birmensdorferstrasse 320, Zrich",47.3698892,8.5111323,"['grocery_or_supermarket', 'food', 'point_of_interest', 'store', 'establishment']",ChIJ4xIDaPcLkEcRdI6q6wjtKms,8055,,https://maps.google.com/?cid=7722245133649481332,,
ALIMA Supermarkt,"Malzstrasse 2, Zrich",47.3657481,8.5213378,"['supermarket', 'grocery_or_supermarket', 'food', 'point_of_interest', 'store', 'establishment']",ChIJNQda0_UJkEcREmrEKYvGSl0,8045,,https://maps.google.com/?cid=6722403694807378450,_cid=6722403694807378450,50.708333333333336
Coop Supermarkt Zrich Manessehof,"Uetlibergstrasse 20, Zrich",47.3649163,8.5211239,"['supermarket', 'grocery_or_supermarket', 'food', 'point_of_interest', 'store', 'establishment']",ChIJHVi3JfQJkEcRJv9MWJcnqMA,8045,https://www.coop.ch/de/standorte/coop-supermarkt-zuerich-manessehof/1833_POS,https://maps.google.com/?cid=13882389382344539942,_cid=13882389382344539942,46.69047619047619
Migros Supermarkt,"Birmensdorferstrasse 140, Zrich",47.3700773,8.520128399999999,"['grocery_or_supermarket', 'supermarket', 'food', 'point_of_interest', 'store', 'establishment']",ChIJfSSTTR4KkEcRF7QYJUbjEPU,8003,https://filialen.migros.ch/de/migros-supermarkt-zuerich-schmiede-wiedikon,https://maps.google.com/?cid=17658864029329306647,_cid=17658864029329306647,55.88095238095238
Haus Magazin,"Rffelstrasse 28, Zrich",47.3632393,8.5124003,"['grocery_or_supermarket', 'food', 'point_of_interest', 'store', 'establishment']",ChIJvyGriIwJkEcRs6ojaEaNI4o,8045,https://www.hausmagazin.ch/de/kontakt/,https://maps.google.com/?cid=9953954934953323187,,
Coop Supermarkt Zrich Zentrum Friesenberg,"Friesenbergpl. 3, Zrich",47.3609207,8.5068197,"['supermarket', 'grocery_or_supermarket', 'food', 'point_of_interest', 'store', 'establishment']",ChIJt9-rXyAKkEcR2KENnw7LbUw,8045,https://www.coop.ch/de/standorte/coop-supermarkt-zuerich-zentrum-friesenberg/4897_POS,https://maps.google.com/?cid=5507281183002436056,_cid=5507281183002436056,53.32051282051282
Barkat Cash & Carry,"Birmensdorferstrasse 141, Zrich",47.3696251,8.5199423,"['grocery_or_supermarket', 'food', 'point_of_interest', 'store', 'establishment']",ChIJn-3BtB8KkEcR0fGCXisbBm0,8003,https://barkat.ch/index.html,https://maps.google.com/?cid=7855996473077592529,_cid=7855996473077592529,51.47435897435897
Coop Supermarkt Zrich Wiedikon,"Birmensdorferstrasse 200, Zrich",47.3707958,8.5160521,"['supermarket', 'grocery_or_supermarket', 'food', 'point_of_interest', 'store', 'establishment']",ChIJTx_WDRoKkEcRlRQJMmQLB_4,8003,https://www.coop.ch/de/standorte/coop-supermarkt-zuerich-wiedikon/1979_POS,https://maps.google.com/?cid=18304611735434761365,_cid=18304611735434761365,52.083333333333336
Migros Supermarkt,"Stockerstrasse 47, Zrich",47.3683421,8.5341709,"['grocery_or_supermarket', 'supermarket', 'food', 'point_of_interest', 'store', 'establishment']",ChIJKehoGAIKkEcRoe1kqchOW68,8002,https://filialen.migros.ch/de/migros-supermarkt-zuerich-stockerstrasse-m-express,https://maps.google.com/?cid=12635779803260448161,_cid=12635779803260448161,33.18333333333333
Roli's Quartierladen,"8003, Dubsstrasse 23, Zrich",47.3677338,8.5225593,"['grocery_or_supermarket', 'food', 'point_of_interest', 'store', 'establishment']",ChIJ9UmN_fUJkEcRthtSRCRgiO4,8003,https://chas-roli.webnode.com/,https://maps.google.com/?cid=17188093686740818870,_cid=17188093686740818870,32.020833333333336
Coop Pronto Shop,"Tessinerpl. 3, Zrich",47.3644142,8.5322192,"['supermarket', 'grocery_or_supermarket', 'food', 'point_of_interest', 'store', 'establishment']",ChIJR-JmIvkJkEcRlsBVvfH2t-A,8002,https://www.coop-pronto.ch/de/standort/zuerich-am-bahnhof-enge/,https://maps.google.com/?cid=16192682503357972630,_cid=16192682503357972630,48.31372549019608
Roland Lebrument,"Dubsstrasse 23, Zrich",47.3676529,8.522530099999999,"['grocery_or_supermarket', 'food', 'point_of_interest', 'store', 'establishment']",ChIJ-Y-KLcQJkEcRNuHKNfqAq6E,8003,https://yellow.local.ch/d/FFpLbXEtov18UCCFk4EF0Q,https://maps.google.com/?cid=11649546673256587574,,
Coop Supermarkt Zrich Bleicherweg,"Bleicherweg 19, Zrich",47.3677745,8.5357179,"['supermarket', 'grocery_or_supermarket', 'food', 'point_of_interest', 'store', 'establishment']",ChIJNdEUsJALkEcRf8VXsbY4wD8,8002,https://www.coop.ch/de/standorte/coop-supermarkt-zuerich-bleicherweg/4922_POS,https://maps.google.com/?cid=4593733977228428671,_cid=4593733977228428671,47.21333333333333
LIDL Switzerland,"Fraumnsterstrasse 16, Zrich",47.3687699,8.541178,"['supermarket', 'convenience_store', 'grocery_or_supermarket', 'home_goods_store', 'food', 'point_of_interest', 'clothing_store', 'store', 'establishment']",ChIJ0REDgqqgmkcRWrTSmPTdg1Q,8001,https://www.lidl.ch/,https://maps.google.com/?cid=6089955163740746842,_cid=6089955163740746842,52.3974358974359
Coop Supermarkt Zrich Brengasse,"Brengasse 16, Zrich",47.3700619,8.537119299999999,"['supermarket', 'grocery_or_supermarket', 'food', 'point_of_interest', 'store', 'establishment']",ChIJJVh4EgEKkEcRbF_BNhkt9yU,8001,https://www.coop.ch/de/standorte/coop-supermarkt-zuerich-baerengasse/1255_POS,https://maps.google.com/?cid=2735704884966940524,_cid=2735704884966940524,51.41333333333333
Kiosk,"Brklipl., Zrich",47.3660017,8.540519,"['convenience_store', 'food', 'point_of_interest', 'store', 'establishment']",ChIJb8RCO6-nmkcRGrTHQnfdnbE,8001,,https://maps.google.com/?cid=12798629220348048410,,
Dowa Lebensmittel Ag,"Bahnhofstrasse 34, Zrich",47.3710562,8.5388877,"['grocery_or_supermarket', 'food', 'point_of_interest', 'store', 'establishment']",ChIJEU012AAKkEcRK500Auuh4RU,8001,,https://maps.google.com/?cid=1576719375282773291,,
Coop Supermarkt Zrich Kreuzplatz,"Forchstrasse 4, Zrich",47.3644499,8.5548427,"['supermarket', 'grocery_or_supermarket', 'food', 'point_of_interest', 'store', 'establishment']",ChIJdUL9H02nmkcRyUv1OUIJOkA,8008,https://www.coop.ch/de/standorte/coop-supermarkt-zuerich-kreuzplatz/1512_POS,https://maps.google.com/?cid=4628021747121474505,_cid=4628021747121474505,56.6025641025641
Migros,"Falkenstrasse 19 - 21, Zrich",47.36543959999999,8.547797899999999,"['grocery_or_supermarket', 'supermarket', 'food', 'point_of_interest', 'store', 'establishment']",ChIJe6LeMFOnmkcRw2FC6oADh-Q,8008,https://filialen.migros.ch/de/migros-supermarkt-zuerich-stadelhofen,https://maps.google.com/?cid=16467134414724424131,_cid=16467134414724424131,57.58441558441559
Migros Supermarkt,"Kreuzpl. 20, Zrich",47.3645091,8.5537771,"['grocery_or_supermarket', 'supermarket', 'food', 'point_of_interest', 'store', 'establishment']",ChIJrZtsEZD8jkcRZSrPkC9Ynh8,8008,https://filialen.migros.ch/de/migros-supermarkt-zuerich-kreuzplatz,https://maps.google.com/?cid=2278355422812252773,_cid=2278355422812252773,60.09722222222222
coop Zrich Stadelhofen,"Stadelhoferstrasse 10, Zrich",47.3665879,8.5478226,"['supermarket', 'grocery_or_supermarket', 'food', 'point_of_interest', 'store', 'establishment']",ChIJe4Xxp-ChmkcRQoDwtFTPTeQ,8001,https://www.coop.ch/de/standorte/coop-supermarkt-zuerich-stadelhofen/1511_POS,https://maps.google.com/?cid=16451032976574152770,_cid=16451032976574152770,34.15315315315316
SPAR Supermarkt Dolderstrasse,"Dolderstrasse 5, Zrich",47.3703218,8.5568505,"['supermarket', 'grocery_or_supermarket', 'food', 'point_of_interest', 'store', 'establishment']",ChIJByNz1bOgmkcRfF5v1v-wqvA,8032,https://www.spar.ch/,https://maps.google.com/?cid=17341867928004288124,_cid=17341867928004288124,64.10526315789474
SPAR express Zrich Schauspielhaus,"Hottingerstrasse 2, Zrich",47.37035119999999,8.549401,"['grocery_or_supermarket', 'food', 'point_of_interest', 'store', 'establishment']",ChIJy90vI6ygmkcRvGcuE-1MqQ4,8032,https://www.spar.ch/,https://maps.google.com/?cid=1056460168707860412,_cid=1056460168707860412,50.125
LoretOlio,"Promenadengasse 18, Zrich",47.3693251,8.5490757,"['grocery_or_supermarket', 'food', 'point_of_interest', 'store', 'establishment']",ChIJg-evQ6ygmkcRoYZpj9E-ZsA,8001,http://www.loretolio.ch/kontakt.html,https://maps.google.com/?cid=13863837572681795233,,
maxi,"Gemeindestrasse 39, Zrich",47.3693137,8.5539752,"['grocery_or_supermarket', 'food', 'point_of_interest', 'store', 'establishment']",ChIJmcEUc7KgmkcRV7gaQCXWMcc,8032,,https://maps.google.com/?cid=14353488942884108375,,
Bellevue Marroni,"Theaterstrasse 14, Zrich",47.3668455,8.5461979,"['grocery_or_supermarket', 'food', 'point_of_interest', 'store', 'establishment']",ChIJ65YDDJChmkcRa2lRIs9M5yw,8001,http://www.bellevuemarroni.ch/,https://maps.google.com/?cid=3235639309806692715,,
Oliven & l,"Gemeindestrasse 65, Zrich",47.3699156,8.5559963,"['grocery_or_supermarket', 'food', 'point_of_interest', 'store', 'establishment']",ChIJgdZaldihmkcRV6UoSeeNsyY,8032,http://www.olivenundoel.ch/,https://maps.google.com/?cid=2788728618776831319,,
Coop Supermarkt Zrich Rmerhof,"Klosbachstrasse 104, Zrich",47.3678286,8.5608793,"['supermarket', 'grocery_or_supermarket', 'food', 'point_of_interest', 'store', 'establishment']",ChIJiXCkXrSgmkcR_p7tVPS-F-o,8032,https://www.coop.ch/de/standorte/coop-supermarkt-zuerich-roemerhof/1736_POS,https://maps.google.com/?cid=16868160885945638654,_cid=16868160885945638654,51.13095238095238
minimoorechopf,"8032, Gemeindestrasse 36, Zrich",47.369103,8.5545747,"['grocery_or_supermarket', 'food', 'point_of_interest', 'store', 'establishment']",ChIJZ-zAa7KgmkcR73_oujg6hw4,8032,,https://maps.google.com/?cid=1046869453715308527,,
Solemare Alimentari SA c/o Frey Pfister AG,"Forchstrasse 2, Zrich",47.3604577,8.563859599999999,"['grocery_or_supermarket', 'food', 'point_of_interest', 'store', 'establishment']",ChIJCYJR5DWnmkcREIH0Wcd2qo0,8032,,https://maps.google.com/?cid=10208102103968416016,,
Denner Express,"Hottingerstrasse 52, Zrich",47.3690299,8.5558873,"['supermarket', 'grocery_or_supermarket', 'food', 'point_of_interest', 'store', 'establishment']",ChIJDwsmspGhmkcREbIDOCNK_OE,8032,https://www.denner.ch/,https://maps.google.com/?cid=16283971867788947985,_cid=16283971867788947985,62.763888888888886
7 Knste,"Titlisstrasse, Zrich",47.3694126,8.5643338,"['convenience_store', 'food', 'point_of_interest', 'store', 'establishment']",ChIJKQNB-rWgmkcRC6lS4_kIwQ0,8032,http://www.siebenkuenste.de/kontakt.html,https://maps.google.com/?cid=991083262351943947,,
Denner Express,"Apollostrasse 2, Zrich",47.364459,8.5556508,"['supermarket', 'grocery_or_supermarket', 'food', 'point_of_interest', 'store', 'establishment']",ChIJs33i3EynmkcRhEO10jMrX7g,8032,https://www.denner.ch/,https://maps.google.com/?cid=13285384927344673668,_cid=13285384927344673668,50.02777777777778
Migros Supermarkt,"Albisriederstrasse 365, Zrich",47.3752046,8.4857195,"['grocery_or_supermarket', 'supermarket', 'food', 'point_of_interest', 'store', 'establishment']",ChIJT4C60NYLkEcR4go8AuAy9HE,8047,https://filialen.migros.ch/de/migros-supermarkt-zuerich-puent,https://maps.google.com/?cid=8211243958294809314,_cid=8211243958294809314,55.98611111111112
Coop Supermarkt Zrich A-Park,"Albisriederstrasse 334, Zrich",47.3761878,8.4870906,"['supermarket', 'grocery_or_supermarket', 'food', 'point_of_interest', 'store', 'establishment']",ChIJe_dIMdcLkEcRAcqzjn6bRd8,8047,https://www.coop.ch/de/standorte/coop-supermarkt-zuerich-a-park/3304_POS,https://maps.google.com/?cid=16088436211713296897,_cid=16088436211713296897,63.34722222222222
Coop Supermarkt Zrich Gutstrasse,"Gutstrasse 159, Zrich",47.37366309999999,8.5023812,"['supermarket', 'grocery_or_supermarket', 'food', 'point_of_interest', 'store', 'establishment']",ChIJvcXhJCkKkEcRH_-ZcFryCNo,8047,https://www.coop.ch/de/standorte/coop-supermarkt-zuerich-gutstrasse/4069_POS,https://maps.google.com/?cid=15711073770332094239,_cid=15711073770332094239,48.47435897435897
Coop Supermarkt Zrich Albisriederplatz,"Badenerstrasse 333, Zrich",47.37771129999999,8.5111067,"['supermarket', 'grocery_or_supermarket', 'food', 'point_of_interest', 'store', 'establishment']",ChIJifEbwyQKkEcReeGy5M0-WeE,8003,https://www.coop.ch/de/standorte/coop-supermarkt-zuerich-albisriederplatz/2674_POS,https://maps.google.com/?cid=16238078985487180153,_cid=16238078985487180153,42.82222222222222
Coop Supermarkt Zrich Lochergut,"Badenerstrasse 244, Zrich",47.3757341,8.5173337,"['supermarket', 'grocery_or_supermarket', 'food', 'point_of_interest', 'store', 'establishment']",ChIJteWyVyIKkEcR0I2C_1V3NVc,8004,https://www.coop.ch/de/standorte/coop-supermarkt-zuerich-lochergut/1409_POS,https://maps.google.com/?cid=6284060066308066768,_cid=6284060066308066768,54.15555555555556
Livio Piatti,"Zentralstrasse 119a, Zrich",47.3744491,8.5155453,"['grocery_or_supermarket', 'food', 'point_of_interest', 'store', 'establishment']",ChIJ71aFNCIKkEcRfnr9ePaYfmw,8003,http://www.liviopiatti.ch/kontakt.html,https://maps.google.com/?cid=7817854187521014398,,
migrolino fresh Zrich Albisriederplatz,"Badenerstrasse 339, Zrich",47.3778922,8.5108966,"['supermarket', 'grocery_or_supermarket', 'food', 'point_of_interest', 'store', 'establishment']",ChIJyQ0vB8QLkEcR0JgxrQCFjGM,8004,http://www.migrolino.ch/,https://maps.google.com/?cid=7173254544446560464,,
migrolino fresh Zrich Albisriederplatz,"Badenerstrasse 339, Zrich",47.3778922,8.5108961,"['supermarket', 'grocery_or_supermarket', 'food', 'point_of_interest', 'store', 'establishment']",ChIJyQ0vB8QLkEcR0JgxrQCFjGM,8004,http://www.migrolino.ch/,https://maps.google.com/?cid=7173254544446560464,,
Migros Supermarkt,"Wengistrasse 7, Zrich",47.374944,8.523068,"['grocery_or_supermarket', 'supermarket', 'food', 'point_of_interest', 'store', 'establishment']",ChIJ3_pzcxkKkEcRcqDQcszcT6Y,8004,https://filialen.migros.ch/de/migros-supermarkt-zuerich-wengihof,https://maps.google.com/?cid=11984039904113893490,_cid=11984039904113893490,59.08974358974359
Seker Market,"Zurlindenstrasse 112, Zrich",47.371251,8.519001,"['grocery_or_supermarket', 'food', 'point_of_interest', 'store', 'establishment']",ChIJd3fTch8KkEcRcLDEAYmBHaU,8003,https://yellow.local.ch/d/yNBDF9QX9dj18lsgbt0OWQ,https://maps.google.com/?cid=11897808216022888560,_cid=11897808216022888560,40.44444444444444
Coop Pronto Shop,"Birmensdorferstrasse 55, Zrich",47.3713635,8.5251356,"['supermarket', 'grocery_or_supermarket', 'food', 'point_of_interest', 'store', 'establishment']",ChIJe49XbxkKkEcRH1OzFi_Q5rk,8004,https://www.coop-pronto.ch/de/standort/zuerich-wiedikon/,https://maps.google.com/?cid=13395623042323010335,_cid=13395623042323010335,56.01960784313726
Superfood Shop,"Seebahnstrasse 109, Zrich",47.3726065,8.5208505,"['grocery_or_supermarket', 'food', 'point_of_interest', 'store', 'establishment']",ChIJB90wKB8KkEcRfR_Upw8oFeQ,8003,,https://maps.google.com/?cid=16435086462863810429,,
Newroz Metzgerei Und Lebensmittel,"Birmensdorferstrasse 67, Zrich",47.3710931,8.524412,"['grocery_or_supermarket', 'food', 'point_of_interest', 'store', 'establishment']",ChIJQQIYtbgLkEcRyjx4YgHFpaE,8004,,https://maps.google.com/?cid=11647932621001342154,_cid=11647932621001342154,32.06896551724138
ffentlicher Khlschrank - Food Waste reduzieren,"Kalkbreitestrasse 2, Zrich",47.3744051,8.5211565,"['grocery_or_supermarket', 'food', 'point_of_interest', 'store', 'establishment']",ChIJcdpi91gLkEcRLe_ervRPays,8003,http://madamefrigo.ch/,https://maps.google.com/?cid=3128682278463401773,,
Coop Supermarkt Zrich Hohlstrasse,"Hohlstrasse 35, Zrich",47.3771023,8.5265009,"['supermarket', 'grocery_or_supermarket', 'food', 'point_of_interest', 'store', 'establishment']",ChIJteWyVyIKkEcRed52ybQo6ts,8004,https://www.coop.ch/de/standorte/coop-supermarkt-zuerich-hohlstrasse/1722_POS,https://maps.google.com/?cid=15846522995795746425,_cid=15846522995795746425,40.56666666666667
Kiosk Kalkbreite,"Kalkbreitestrasse 1, Zrich",47.3742612,8.5214843,"['convenience_store', 'food', 'point_of_interest', 'store', 'establishment']",ChIJycs8IBkKkEcRWpnUbv6ObU4,8003,,https://maps.google.com/?cid=5651330330852104538,,
Coop Pronto Shop,"Badenerstrasse 44, Zrich",47.3735606,8.5280957,"['supermarket', 'grocery_or_supermarket', 'food', 'point_of_interest', 'store', 'establishment']",ChIJN4lZaRsKkEcR8UgdpDhrUwg,8004,https://www.coop-pronto.ch/de/standort/zuerich-stauffacher/,https://maps.google.com/?cid=599941066386131185,_cid=599941066386131185,35.97058823529412
Migros,"Lwenstrasse 31-35, Zrich",47.37538319999999,8.5360797,"['grocery_or_supermarket', 'supermarket', 'food', 'point_of_interest', 'store', 'establishment']",ChIJebvE0AUKkEcRli-dLu8vFaM,8001,https://filialen.migros.ch/de/migros-supermarkt-zuerich-city,https://maps.google.com/?cid=11751351507018919830,_cid=11751351507018919830,56.46969696969697
Coop Supermarkt Zrich Stauffacher,"Badenerstrasse 15, Zrich",47.37342350000001,8.5303361,"['supermarket', 'grocery_or_supermarket', 'food', 'point_of_interest', 'store', 'establishment']",ChIJx0FaShsKkEcRmJj7xPh7kUY,8004,https://www.coop.ch/de/standorte/coop-supermarkt-zuerich-stauffacher/1412_POS,https://maps.google.com/?cid=5084981762664929432,_cid=5084981762664929432,43.278688524590166
Caffetteria,"Lwenstrasse 2, Zrich",47.3729728,8.534667299999999,"['grocery_or_supermarket', 'food', 'point_of_interest', 'store', 'establishment']",ChIJNTqqFk0LkEcRKfUg-9PoFM8,8001,,https://maps.google.com/?cid=14921807462534280489,,
Alnatura Bio Super Markt,"Lwenstrasse 31, Zrich",47.3750629,8.5361977,"['grocery_or_supermarket', 'food', 'point_of_interest', 'store', 'establishment']",ChIJ3efNzwUKkEcR3FNdmoh5Ivg,8001,https://alnatura.migros.ch/de/filialfinder#alnatura-bio-super-markt-alnatura-bio-super-markt-zuerich-city,https://maps.google.com/?cid=17879987098226611164,_cid=17879987098226611164,52.083333333333336
migrolino fresh Zrich Lwenstrasse,"Lwenstrasse 2, Zrich",47.3729829,8.534700899999999,"['supermarket', 'grocery_or_supermarket', 'food', 'point_of_interest', 'store', 'establishment']",ChIJabhIdIcLkEcRLJVQ58SSRHc,8001,http://www.migrolino.ch/,https://maps.google.com/?cid=8594155363321812268,,
REFORMHAUS,"Bckerstrasse 22, Zrich",47.3745234,8.529703999999999,"['grocery_or_supermarket', 'food', 'health', 'point_of_interest', 'store', 'establishment']",ChIJ35COtgQKkEcRm_xEgKNHvs0,8004,http://www.reformhaus.ch/,https://maps.google.com/?cid=14825365790907497627,,
REFORMHAUS,"Stockerstrasse 38, Zrich",47.3675591,8.5348781,"['grocery_or_supermarket', 'drugstore', 'meal_takeaway', 'restaurant', 'food', 'health', 'point_of_interest', 'store', 'establishment']",ChIJmYEM-QEKkEcRJI81v8AuBKI,8002,http://www.reformhaus.ch/,https://maps.google.com/?cid=11674507539427725092,_cid=11674507539427725092,51.20967741935484
Coop Supermarkt Zrich ShopVille HB,"Halle, Lwenstrasse, Zrich",47.37780739999999,8.5384649,"['supermarket', 'grocery_or_supermarket', 'food', 'point_of_interest', 'store', 'establishment']",ChIJTwg-2gUKkEcRGt4wjZvo6lg,8021,https://www.coop.ch/de/standorte/coop-supermarkt-zuerich-shopville-hb/4899_POS,https://maps.google.com/?cid=6407189174674316826,_cid=6407189174674316826,48.70642201834863
Migros Supermarkt,"ShopVille - Zrich Hauptbahnhof, Zrich",47.3770993,8.5393882,"['grocery_or_supermarket', 'supermarket', 'food', 'point_of_interest', 'store', 'establishment']",ChIJIZbEjggKkEcRw__ZfGwKmTA,8001,https://filialen.migros.ch/de/migros-supermarkt-zuerich-shopvillemaert,https://maps.google.com/?cid=3501841646324678595,,
Di Bennardo AG,"Morgartenstrasse 5, Zrich",47.3711561,8.5294931,"['grocery_or_supermarket', 'food', 'point_of_interest', 'store', 'establishment']",ChIJ0XyPyhwKkEcRpPQzJjjrEJg,8004,http://www.dibennardo.com/,https://maps.google.com/?cid=10957516519784051876,,
Profi Nonogramm,"Stockerstrasse 44, Zrich",47.3680561,8.5346769,"['grocery_or_supermarket', 'food', 'point_of_interest', 'store', 'establishment']",ChIJgQoKHgIKkEcRAsd03uVRyIc,8002,,https://maps.google.com/?cid=9784160238183958274,,
L'essenza,"Lwenstrasse 2, Zrich",47.3730024,8.534955499999999,"['grocery_or_supermarket', 'food', 'point_of_interest', 'store', 'establishment']",ChIJibZB0hoLkEcRjGNBLWkAawE,8001,https://essenzacoffee.ch/?y_source=1_MjA0MDE1NTYtNzE1LWxvY2F0aW9uLndlYnNpdGU%3D,https://maps.google.com/?cid=102175868276794252,,
Coop,"Museumstrasse, Zrich",47.3778076,8.5384652,"['supermarket', 'grocery_or_supermarket', 'food', 'point_of_interest', 'store', 'establishment']",ChIJuQHq4AgKkEcRY14U5w5bJfQ,8001,http://www.coop.ch/de/einkaufen/coop-to-go.html?ccmp=_1:coop-brandkombi_2:coop_3:ext_4:sem_5:google-search_6:search-ad_7:web_8:002_9:de&gclid=EAIaIQobChMIrN-b7cTk2wIVBF8ZCh3FowkKEAAYASAAEgIsRPD_BwE,https://maps.google.com/?cid=17592567638957252195,_cid=17592567638957252195,27.99019607843137
natrli Kseladen in Zrich im Coop City St. Annahof,"Bahnhofstrasse 57, Zrich",47.372882,8.538064199999999,"['supermarket', 'grocery_or_supermarket', 'food', 'point_of_interest', 'store', 'establishment']",ChIJc32Jlh8LkEcRTT0IkysMj3Q,8001,http://www.naturli-ag.ch/,https://maps.google.com/?cid=8398945211359182157,,
Coop Supermarkt City Zrich St. Annahof Food,"Bahnhofstrasse 57, Zrich",47.37295719999999,8.537843400000002,"['department_store', 'point_of_interest', 'store', 'establishment']",ChIJXyZCmMILkEcRSFi34qPZI5U,8001,https://www.coop.ch/de/services/standorte-und-oeffnungszeiten/detail.html/1914/,https://maps.google.com/?cid=10746672433742698568,_cid=10746672433742698568,59.5
Casa Tropical Swiss,"Stauffacherstrasse 44, Zrich",47.3768131,8.5252233,"['grocery_or_supermarket', 'food', 'point_of_interest', 'store', 'establishment']",ChIJIxAd9hkKkEcR9x74BUJzLOg,8004,,https://maps.google.com/?cid=16729873443179732727,,
Ramos Lebensmittel,"Neumarkt 7, Zrich",47.3727574,8.5458924,"['grocery_or_supermarket', 'food', 'point_of_interest', 'store', 'establishment']",ChIJc2zWDamgmkcRJdLmTZ1ZlyU,8001,https://zuri.net/de/zurich/shopping/ramos-lebensmittel-5782.htm,https://maps.google.com/?cid=2708732233038352933,,
Coop Supermarkt Zrich Bahnhofbrcke,"Bahnhofbrcke 1, Zrich",47.3764584,8.5423575,"['supermarket', 'grocery_or_supermarket', 'food', 'point_of_interest', 'store', 'establishment']",ChIJBUuIDAgKkEcR6dqDd_VHtbA,8001,https://www.coop.ch/de/standorte/coop-supermarkt-zuerich-bahnhofbruecke/1905_POS,https://maps.google.com/?cid=12733162641057635049,_cid=12733162641057635049,50.25
italienische spezialitten,"Unnamed Road, 8001, Zrich",47.3736164,8.544817799999999,"['grocery_or_supermarket', 'food', 'point_of_interest', 'store', 'establishment']",ChIJaf7JsqmgmkcRGLZ4Zi9Nd54,8001,,https://maps.google.com/?cid=11418680246199170584,,
mymuesli Laden Zurich,"Mnstergasse 22, Zrich",47.3713737,8.544274999999999,"['grocery_or_supermarket', 'food', 'point_of_interest', 'store', 'establishment']",ChIJT_GEh6mgmkcRsVsx9u4Slxo,8001,http://www.mymuesli.com/laden,https://maps.google.com/?cid=1916020984011381681,_cid=1916020984011381681,27.703703703703702
Carlo Meschini - Prodotti Alimentari,"Glockengasse 2, Zrich",47.3720112,8.540710599999999,"['grocery_or_supermarket', 'food', 'point_of_interest', 'store', 'establishment']",ChIJz84LSQcKkEcRWkp4PaDzCe8,8001,,https://maps.google.com/?cid=17224566119406783066,,
Punto Italiano,"Zhringerpl. 14, Zrich",47.3738034,8.5446426,"['grocery_or_supermarket', 'food', 'point_of_interest', 'store', 'establishment']",ChIJF3z-AX6hmkcR5G1nxmd5Fl0,8001,http://www.puntoitalianodamichele.ch/,https://maps.google.com/?cid=6707682181632191972,,
Russo,"Freiestrasse 14, Zrich",47.373345,8.5522294,"['grocery_or_supermarket', 'meal_takeaway', 'restaurant', 'food', 'point_of_interest', 'store', 'establishment']",ChIJCylYrK-gmkcRFKMOIuDGRUA,8032,http://www.russo-lebensmittel.ch/,https://maps.google.com/?cid=4631326457766781716,_cid=4631326457766781716,51.11940298507463
migrolino,"Bahnhofquai Hauptbahnhof, Zrich",47.37788,8.5411998,"['supermarket', 'grocery_or_supermarket', 'food', 'point_of_interest', 'store', 'establishment']",ChIJd8y6vAgKkEcRaFgy3lgjfcs,8001,http://www.migrolino.ch/,https://maps.google.com/?cid=14662914826380138600,_cid=14662914826380138600,17.8015873015873
Pick Fresh,"Zrichbergstrasse 64, Zrich",47.3756732,8.559680499999999,"['supermarket', 'grocery_or_supermarket', 'food', 'point_of_interest', 'store', 'establishment']",ChIJB_9hcrqgmkcRotnOI7okW38,8044,,https://maps.google.com/?cid=9176969047580793250,_cid=9176969047580793250,51.66197183098591
Engi DelikatEssen,"Schnleinstrasse 16, Zrich",47.3739491,8.5524268,"['grocery_or_supermarket', 'food', 'point_of_interest', 'store', 'establishment']",ChIJUQRotiSnmkcR8xgFfi4wwkM,8032,,https://maps.google.com/?cid=4882517922263931123,,
k kiosk,"Heimpl., Zrich",47.3704884,8.5488546,"['convenience_store', 'liquor_store', 'restaurant', 'food', 'point_of_interest', 'store', 'establishment']",ChIJYUt98dChmkcRqWBQLGWqzA4,8001,https://www.kkiosk.ch/,https://maps.google.com/?cid=1066414563291848873,_cid=1066414563291848873,56.55384615384615
Coop Supermarkt Zrich Fluntern,"Zrichbergstrasse 75, Zrich",47.3763892,8.559660299999999,"['supermarket', 'grocery_or_supermarket', 'food', 'point_of_interest', 'store', 'establishment']",ChIJdUL9H02nmkcRU115IRS7Tn0,8044,https://www.coop.ch/de/standorte/coop-supermarkt-zuerich-fluntern/1600_POS,https://maps.google.com/?cid=9029359998059765075,_cid=9029359998059765075,58.024096385542165
SPAR Supermarkt Urdorf,"Bachstrasse 11, Urdorf",47.3819171,8.4237329,"['supermarket', 'grocery_or_supermarket', 'food', 'point_of_interest', 'store', 'establishment']",ChIJ4URWvBgMkEcRkBRAG77pLIE,8902,https://www.spar.ch/,https://maps.google.com/?cid=9308071532578215056,_cid=9308071532578215056,63.25974025974026
Olive Market,"Rautistrasse 106, Zrich",47.3828622,8.4865048,"['grocery_or_supermarket', 'food', 'point_of_interest', 'store', 'establishment']",ChIJI0KPuwgLkEcR_4yKIFqHZNA,8048,,https://maps.google.com/?cid=15016275878722833663,_cid=15016275878722833663,40.426829268292686
SPAR Supermarkt Zollfreilager,"Freilagerstrasse 51, Zrich",47.3800427,8.4896586,"['supermarket', 'grocery_or_supermarket', 'food', 'point_of_interest', 'store', 'establishment']",ChIJjRPzD9ILkEcRJ1OiJpXlD48,8047,https://www.spar.ch/,https://maps.google.com/?cid=10308710500835414823,_cid=10308710500835414823,52.35897435897436
VOI,"Albisriederstrasse 253, Zrich",47.3783425,8.4940041,"['supermarket', 'bakery', 'grocery_or_supermarket', 'food', 'health', 'point_of_interest', 'store', 'establishment']",ChIJgfpfQm8LkEcRk3Qlzq1FzlQ,8047,https://filialen.migros.ch/de/voi-zuerich-albisriederstrasse,https://maps.google.com/?cid=6110898357178561683,_cid=6110898357178561683,49.16666666666666
migrolino Zrich Rautistrasse,"Rautistrasse 12, Zrich",47.3803952,8.4941517,"['supermarket', 'grocery_or_supermarket', 'food', 'point_of_interest', 'store', 'establishment']",ChIJTwogqYkLkEcRd11qtCOWbc4,8047,http://www.migrolino.ch/,https://maps.google.com/?cid=14874710224369507703,_cid=14874710224369507703,34.53968253968254
Mediterranea Agro Alimentari Import Spataro Luigi,"Albisriederstrasse 226, Zrich",47.3794173,8.4947306,"['grocery_or_supermarket', 'food', 'point_of_interest', 'store', 'establishment']",ChIJ-SZopdILkEcRXtmWBP7tL5E,8047,,https://maps.google.com/?cid=10461842134659422558,,
Global food,"Badenerstrasse 530, Zrich",47.3830576,8.500382,"['grocery_or_supermarket', 'convenience_store', 'food', 'point_of_interest', 'store', 'establishment']",ChIJ6VKuCjMKkEcRlvFdbArOUQw,8048,,https://maps.google.com/?cid=887717145731789206,_cid=887717145731789206,44.32051282051282
Coop Pronto Shop,"Badenerstrasse 575, Zrich",47.3846317,8.495802,"['supermarket', 'grocery_or_supermarket', 'food', 'point_of_interest', 'store', 'establishment']",ChIJoxpEocwLkEcRyX_yTOD8J-o,8048,https://www.coop-pronto.ch/de/standort/zuerich-kiss/,https://maps.google.com/?cid=16872732569260687305,_cid=16872732569260687305,20.87368421052632
Migros Supermarkt,"Badenerstrasse 376, Zrich",47.3791051,8.5087542,"['grocery_or_supermarket', 'supermarket', 'food', 'point_of_interest', 'store', 'establishment']",ChIJP2csREgKkEcRBKI93d184H0,8004,https://filialen.migros.ch/de/migros-supermarkt-zuerich-albisriederplatz,https://maps.google.com/?cid=9070386941865599492,_cid=9070386941865599492,52.57692307692308
Letzi Markt,"Letzigraben 15, Zrich",47.3807783,8.5032066,"['grocery_or_supermarket', 'food', 'point_of_interest', 'store', 'establishment']",ChIJ9csXi9MLkEcRScfYotbAWbw,8003,,https://maps.google.com/?cid=13572090980145350473,_cid=13572090980145350473,35.42307692307692
Swiss Bangla Shop,"Badenerstrasse 503, Zrich",47.38146,8.5026371,"['grocery_or_supermarket', 'food', 'point_of_interest', 'store', 'establishment']",ChIJVao7mQULkEcRU71FDhO4__4,8048,https://swiss-bangla-shop.business.site/?utm_source=gmb&utm_medium=referral,https://maps.google.com/?cid=18374607396678253907,_cid=18374607396678253907,43.59090909090909
Aria Laden,"Eichbhlstrasse 62, Zrich",47.3839198,8.5084678,"['supermarket', 'shopping_mall', 'grocery_or_supermarket', 'food', 'point_of_interest', 'store', 'establishment']",ChIJGdbMUjcKkEcRlGb35UaelHU,8004,,https://maps.google.com/?cid=8472570826333841044,_cid=8472570826333841044,44.513888888888886
migrolino Zrich Hardau,"Bullingerstrasse 73, Zrich",47.3814267,8.510088999999999,"['supermarket', 'grocery_or_supermarket', 'food', 'point_of_interest', 'store', 'establishment']",ChIJ1_vqWDoKkEcRO-q7gx6134o,8004,http://www.migrolino.ch/,https://maps.google.com/?cid=10006916039704308283,_cid=10006916039704308283,33.15079365079365
Safran Shop safranshop.ch Gewrze und Geschenkideen,"Badenerstrasse 549, Zrich",47.3830688,8.4994357,"['grocery_or_supermarket', 'food', 'point_of_interest', 'store', 'establishment']",ChIJHxaL2kQTkEcRjAexID3wRtA,8048,,https://maps.google.com/?cid=15007946953590900620,,
migrolino fresh Zrich Langstrasse,"Langstrasse 134, Zrich",47.3798155,8.5279692,"['supermarket', 'grocery_or_supermarket', 'food', 'point_of_interest', 'store', 'establishment']",ChIJrYeh4RAKkEcROh_MTyUAbSY,8004,http://www.migrolino.ch/,https://maps.google.com/?cid=2768869506155290426,_cid=2768869506155290426,25.360902255639097
SPAR Supermarkt Gerlafingen,"Langstrasse 124, Zrich",47.37952139999999,8.5277843,"['grocery_or_supermarket', 'food', 'point_of_interest', 'store', 'establishment']",ChIJoQD85hAKkEcRQA_5u6xp4wc,8004,,https://maps.google.com/?cid=568414168587767616,,
"Rona Diem, Ksepalast","Schneggpl. 10, Zrich",47.3807483,8.5258474,"['grocery_or_supermarket', 'food', 'point_of_interest', 'store', 'establishment']",ChIJW-keqOALkEcRblyrzxcbyts,8004,,https://maps.google.com/?cid=15837500828684082286,,
India Supermarkt Maharajah,"Josefstrasse 91, Zrich",47.3830153,8.530630799999999,"['supermarket', 'grocery_or_supermarket', 'food', 'point_of_interest', 'store', 'establishment']",ChIJkf9PMRIKkEcRcnkpSfd8Y2Q,8005,http://www.indiasupermarkt.ch/,https://maps.google.com/?cid=7233762828013369714,_cid=7233762828013369714,55.05
Kabul Mini Market,"Brauerstrasse 55, Zrich",47.3783597,8.5257893,"['grocery_or_supermarket', 'food', 'point_of_interest', 'store', 'establishment']",ChIJIz3rSNALkEcRLstsZmbh7oc,8004,http://www.kabulmarket.ch/,https://maps.google.com/?cid=9795014069498727214,,
migrolino Zrich Lagerstrasse,"Lagerstrasse 101, Zrich",47.3794244,8.529411399999999,"['supermarket', 'grocery_or_supermarket', 'food', 'point_of_interest', 'store', 'establishment']",ChIJy_384qMLkEcRy4M56lagzoU,8004,http://www.migrolino.ch/,https://maps.google.com/?cid=9641820147404080075,_cid=9641820147404080075,41.375
La Tienda Latina,"Dienerstrasse 72, Zrich",47.3794415,8.5254193,"['grocery_or_supermarket', 'food', 'point_of_interest', 'store', 'establishment']",ChIJ70tIMBcKkEcRl0QXntWqGGI,8004,,https://maps.google.com/?cid=7068587449615074455,,
Cara - Kiosk & Headshop - Getrnke & Backwaren,"Langstrasse 116, Zrich",47.3790732,8.5275527,"['supermarket', 'grocery_or_supermarket', 'food', 'point_of_interest', 'store', 'establishment']",ChIJUzht_I8LkEcRjUGbLLc5QMQ,8004,,https://maps.google.com/?cid=14141366288833528205,_cid=14141366288833528205,29.53125
24/7,"Langstrasse 210, Zrich",47.3828726,8.5301919,"['grocery_or_supermarket', 'food', 'point_of_interest', 'store', 'establishment']",ChIJv3dE15cLkEcRaB62Jv_30co,8005,,https://maps.google.com/?cid=14614734941032160872,,
Dirok Market,"Limmatstrasse 119, Zrich",47.3839465,8.5322452,"['supermarket', 'grocery_or_supermarket', 'food', 'point_of_interest', 'store', 'establishment']",ChIJ9S2naBIKkEcRmg9_GKiFyxs,8005,,https://maps.google.com/?cid=2002841416308297626,_cid=2002841416308297626,49.16883116883117
Fresh Shop Zrich,"Langstrasse 210, Zrich",47.3828488,8.5302578,"['supermarket', 'grocery_or_supermarket', 'food', 'point_of_interest', 'store', 'establishment']",ChIJm-wl6TILkEcRU6L-QLTPsB8,8005,,https://maps.google.com/?cid=2283553384168333907,,
Helvetiaplatz market,"Langstrasse, Zrich",47.3763812,8.5263654,"['grocery_or_supermarket', 'food', 'point_of_interest', 'store', 'establishment']",ChIJ_4FlDQcLkEcRLfw5-cfXig8,8004,,https://maps.google.com/?cid=1119944711234780205,,
Denner Express,"Sihlhallenstrasse 5/7, Zrich",47.379543,8.527069,"['supermarket', 'grocery_or_supermarket', 'food', 'point_of_interest', 'store', 'establishment']",ChIJCQIM2xAKkEcRH42C4KMFF28,8004,https://www.denner.ch/,https://maps.google.com/?cid=8004873064078806303,_cid=8004873064078806303,50.23611111111112
Coop Supermarkt Zrich Zollstrasse,"Zollstrasse 42, Zrich",47.3805215,8.5348598,"['supermarket', 'grocery_or_supermarket', 'food', 'point_of_interest', 'store', 'establishment']",ChIJycNoXQ4KkEcR9FjkT19AFzw,8005,https://www.coop.ch/de/standorte/coop-supermarkt-zuerich-zollstrasse/5149_POS,https://maps.google.com/?cid=4330000344846457076,_cid=4330000344846457076,47.142857142857146
Coop Supermarkt Zrich Europaallee Passage,"Europaallee 5, Zrich",47.3780286,8.534917499999999,"['supermarket', 'grocery_or_supermarket', 'food', 'point_of_interest', 'store', 'establishment']",ChIJrYlCwA8KkEcRFaaZgrz8gwc,8004,https://www.coop.ch/de/standorte/coop-supermarkt-zuerich-europaallee-passage/4571_POS,https://maps.google.com/?cid=541554266789750293,_cid=541554266789750293,60.36363636363637
Ege,"Feldstrasse 133, Zrich",47.3801065,8.5243979,"['supermarket', 'grocery_or_supermarket', 'restaurant', 'food', 'point_of_interest', 'store', 'establishment']",ChIJhfX1HhcKkEcRnWMuiG_wVVI,8004,https://egesupermarkt.business.site/,https://maps.google.com/?cid=5932912445947274141,_cid=5932912445947274141,66.67948717948718
Aldi,"Zollstrasse 58, Zrich",47.3809072,8.5332134,"['supermarket', 'grocery_or_supermarket', 'food', 'point_of_interest', 'store', 'establishment']",ChIJDXAJGA4KkEcRwgtNwO0k-og,8005,https://www.aldi-suisse.ch/de/,https://maps.google.com/?cid=9870242136887987138,_cid=9870242136887987138,51.45555555555556
baeck-sandwich,"Langstrasse 88, Zrich",47.3780623,8.5268401,"['grocery_or_supermarket', 'food', 'point_of_interest', 'store', 'establishment']",ChIJhbAMoxAKkEcRSummoRrBOTk,8004,,https://maps.google.com/?cid=4123539253959780682,_cid=4123539253959780682,32.495049504950494
Migros Supermarkt,"Hauptbahnhof, Zrich",47.3782609,8.5402757,"['grocery_or_supermarket', 'supermarket', 'food', 'point_of_interest', 'store', 'establishment']",ChIJS6CT8QgKkEcRwqhtQkVOTUI,8001,https://filialen.migros.ch/de/migros-supermarkt-zuerich-hauptbahnhof,https://maps.google.com/?cid=4777560839084157122,_cid=4777560839084157122,33.43564356435643
Migros Supermarkt,"Sihlpassage, Zrich",47.3784015,8.535615,"['grocery_or_supermarket', 'supermarket', 'food', 'point_of_interest', 'store', 'establishment']",ChIJjx7_F9YLkEcRPih1Q_-rqP4,8004,https://filialen.migros.ch/de/migros-supermarkt-zuerich-hb-sihlquai,https://maps.google.com/?cid=18350105794557847614,_cid=18350105794557847614,35.43564356435643
Rampe21 - food cooperative,"Ausstellungsstrasse 21, Zrich",47.38150419999999,8.5369241,"['grocery_or_supermarket', 'food', 'point_of_interest', 'store', 'establishment']",ChIJQ6FnTOULkEcRXY5Wtss4-8k,8005,https://grassrooted.ch/rampe21,https://maps.google.com/?cid=14554289068366532189,_cid=14554289068366532189,52.23809523809524
Kiosk ZHB GmbH,"Zollstrasse 37, Zrich",47.3802491,8.5347297,"['grocery_or_supermarket', 'food', 'point_of_interest', 'store', 'establishment']",ChIJaQMo3MELkEcRmHFRLUt1ePU,8005,,https://maps.google.com/?cid=17688016502240932248,,
Migros Supermarkt (mit Daily Produkten),"Zollstrasse 6, Zrich",47.3798176,8.5369492,"['grocery_or_supermarket', 'supermarket', 'food', 'point_of_interest', 'store', 'establishment']",ChIJRdQI-WgLkEcRmzFe5a0pjkY,8005,https://filialen.migros.ch/de/migros-daily-take-away-daily-zuerich-zollstrasse-2,https://maps.google.com/?cid=5084046856202105243,_cid=5084046856202105243,30.341463414634145
REFORMHAUS,"ShopVille RailCity, Zrich",47.3778015,8.5399832,"['grocery_or_supermarket', 'food', 'health', 'point_of_interest', 'store', 'establishment']",ChIJG52T9AgKkEcRSehTXePt07U,8001,http://www.reformhaus.ch/,https://maps.google.com/?cid=13102077301730043977,_cid=13102077301730043977,41.60493827160494
avec,"Sihlquai, Zrich",47.3787914,8.5365804,"['supermarket', 'grocery_or_supermarket', 'food', 'point_of_interest', 'store', 'establishment']",ChIJs1ZRyEMLkEcRdmpHWnQPAQQ,8004,https://www.avec.ch/de/index.php,https://maps.google.com/?cid=288528843533675126,,
Grassrooted,"Ausstellungsstrasse 21, Zrich",47.38150419999999,8.5369241,"['grocery_or_supermarket', 'food', 'point_of_interest', 'store', 'establishment']",ChIJqbKmng4KkEcREoE8hOiwm9o,8005,https://grassrooted.ch/,https://maps.google.com/?cid=15752378634355900690,,
gebana AG,"Ausstellungsstrasse 21, Zrich",47.38152239999999,8.5369241,"['grocery_or_supermarket', 'food', 'point_of_interest', 'store', 'establishment']",ChIJPdxZPg4KkEcRVFKtN8jHlPw,8005,https://www.gebana.com/shop/,https://maps.google.com/?cid=18200391656852509268,,
Valora Schweiz AG,"Passage Sihlquai, Zrich",47.3788238,8.5365103,"['grocery_or_supermarket', 'food', 'point_of_interest', 'store', 'establishment']",ChIJG8aAfTcLkEcRkXu97Lre9U0,8004,https://yellow.local.ch/d/vaN8fPM0YjVmM3jghhAcsQ,https://maps.google.com/?cid=5617641004631686033,,
Asia Store,"Konradstrasse 1, Zrich",47.3797226,8.5369441,"['grocery_or_supermarket', 'food', 'point_of_interest', 'store', 'establishment']",ChIJNXhT3A4KkEcR_EV1plBy1Vk,8005,http://www.asia-store.ch/,https://maps.google.com/?cid=6473205730130609660,_cid=6473205730130609660,43.647887323943664
Coop Supermarkt Zrich Universittstrasse,"Universittstrasse 73, Zrich",47.38252139999999,8.547810499999999,"['supermarket', 'grocery_or_supermarket', 'food', 'point_of_interest', 'store', 'establishment']",ChIJkzTA46CgmkcRdMqv-tjwERQ,8006,https://www.coop.ch/de/standorte/coop-supermarkt-zuerich-universitaetstrasse/1838_POS,https://maps.google.com/?cid=1446201770072066676,_cid=1446201770072066676,56.083333333333336
Coop Supermarkt Zrich Rigiplatz,"Universittstrasse 101, Zrich",47.3839571,8.5480634,"['supermarket', 'grocery_or_supermarket', 'food', 'point_of_interest', 'store', 'establishment']",ChIJ6UrCT6CgmkcRc66BhyTAc04,8006,https://www.coop.ch/de/standorte/coop-supermarkt-zuerich-rigiplatz/5019_POS,https://maps.google.com/?cid=5653073220404883059,_cid=5653073220404883059,52.90476190476191
avec,"Passage Sihlquai, Zrich",47.3787856,8.5398316,"['supermarket', 'convenience_store', 'grocery_or_supermarket', 'food', 'point_of_interest', 'store', 'establishment']",ChIJERnIOCULkEcRQKVEKaVzLTg,8004,https://avec.ch/,https://maps.google.com/?cid=4048018793275106624,,
Denner Express,"Niederdorfstrasse 88, Zrich",47.3762467,8.544138199999999,"['supermarket', 'grocery_or_supermarket', 'food', 'point_of_interest', 'store', 'establishment']",ChIJf_wZCKigmkcRr9yrStUnJ9k,8001,https://www.denner.ch/,https://maps.google.com/?cid=15647519227356372143,_cid=15647519227356372143,52.81927710843374
Migros Supermarkt,"Toblerstrasse 73, Zrich",47.379307,8.559392599999999,"['grocery_or_supermarket', 'supermarket', 'food', 'point_of_interest', 'store', 'establishment']",ChIJzwvLd7ugmkcR0PWkijPdm54,8044,https://filialen.migros.ch/de/migros-supermarkt-zuerich-toblerplatz,https://maps.google.com/?cid=11428971692821902800,_cid=11428971692821902800,58.8974358974359
SPAR express Zrich Toblerplatz,"Toblerpl. 5, Zrich",47.3790988,8.5597882,"['grocery_or_supermarket', 'supermarket', 'food', 'point_of_interest', 'store', 'establishment']",ChIJSxxYmbugmkcRgGXMY2ke_rc,8044,https://www.spar.ch/,https://maps.google.com/?cid=13258067791020057984,_cid=13258067791020057984,38.24444444444445
Migros Supermarkt,"Birmensdorferstrasse 87, Urdorf",47.3850391,8.4217389,"['grocery_or_supermarket', 'supermarket', 'food', 'point_of_interest', 'store', 'establishment']",ChIJ1wh82yIMkEcRD-SIel5TORA,8902,https://filialen.migros.ch/de/migros-supermarkt-urdorf-spitzacker,https://maps.google.com/?cid=1169057243527177231,_cid=1169057243527177231,54.763888888888886
Coop Supermarkt Urdorf,"Birmensdorferstrasse 79, Urdorf",47.38488340000001,8.4222555,"['supermarket', 'grocery_or_supermarket', 'food', 'point_of_interest', 'store', 'establishment']",ChIJnxYqzCIMkEcRDDbR5DPSKIU,8902,https://www.coop.ch/de/standorte/coop-supermarkt-urdorf/4866_POS,https://maps.google.com/?cid=9595150126436922892,_cid=9595150126436922892,45.91666666666666
Coop Supermarkt Zrich Suteracher,"Am Suteracher 14, Zrich",47.389955,8.4720952,"['supermarket', 'grocery_or_supermarket', 'food', 'point_of_interest', 'store', 'establishment']",ChIJ6bEo5eoLkEcRo5q89S3axQ8,8048,https://www.coop.ch/de/standorte/coop-supermarkt-zuerich-suteracher/1227_POS,https://maps.google.com/?cid=1136554371912080035,_cid=1136554371912080035,57.82051282051282
migrolino Zrich Farbhof,"Karstlernstrasse 2, Zrich",47.3904603,8.4789204,"['supermarket', 'grocery_or_supermarket', 'food', 'point_of_interest', 'store', 'establishment']",ChIJuwfczBELkEcR62eLJhBRuy4,8048,http://www.migrolino.ch/,https://maps.google.com/?cid=3367374276197574635,_cid=3367374276197574635,56.927083333333336
Super Market Beg,"Badenerstrasse 688, Zrich",47.3882774,8.4847371,"['grocery_or_supermarket', 'food', 'point_of_interest', 'store', 'establishment']",ChIJccRZyscLkEcROGL2N7PipCg,8048,,https://maps.google.com/?cid=2928714917063582264,,
Coop Supermarkt Zrich Altstetten,"Badenerstrasse 650, Zrich",47.3875672,8.4890135,"['supermarket', 'grocery_or_supermarket', 'food', 'point_of_interest', 'store', 'establishment']",ChIJeZIZA8kLkEcR6jYDL44vL-4,8048,https://www.coop.ch/de/standorte/coop-supermarkt-zuerich-altstetten/1907_POS,https://maps.google.com/?cid=17162988992652850922,_cid=17162988992652850922,55.38461538461539
Coop Supermarkt Zrich Lindenplatz,"Lindenpl. 6, Zrich",47.3876386,8.4853846,"['supermarket', 'grocery_or_supermarket', 'food', 'point_of_interest', 'store', 'establishment']",ChIJeZIZA8kLkEcRrBtlVEevG5k,8048,https://www.coop.ch/de/standorte/coop-supermarkt-zuerich-lindenplatz/4852_POS,https://maps.google.com/?cid=11032604433067613100,_cid=11032604433067613100,50.16666666666666
Migros Supermarkt,"Neumarkt Altstetten, Altstetterstrasse 145, Zrich",47.3882164,8.4873808,"['grocery_or_supermarket', 'supermarket', 'food', 'point_of_interest', 'store', 'establishment']",ChIJhwIxe8gLkEcRG-YkJJT2BCk,8048,https://filialen.migros.ch/de/migros-supermarkt-zuerich-altstetten-neumarkt,https://maps.google.com/?cid=2955758371583878683,_cid=2955758371583878683,58.875
Goods Market,Zrich,47.3879758,8.4865452,"['grocery_or_supermarket', 'food', 'point_of_interest', 'store', 'establishment']",ChIJPXPAh8gLkEcR_IZRBTaLX4U,8048,,https://maps.google.com/?cid=9610553193965651708,,
Migros Supermarkt,"Hohlstrasse 600, Zrich",47.3913612,8.4877977,"['grocery_or_supermarket', 'supermarket', 'food', 'point_of_interest', 'store', 'establishment']",ChIJfQVo8bcLkEcRIczzTEiuxuA,8048,https://filialen.migros.ch/de/migros-supermarkt-zuerich-altstetten-m-express,https://maps.google.com/?cid=16196824735436491809,_cid=16196824735436491809,33.107142857142854
migrolino Zrich Rautistrasse,"Rautistrasse 32, Zrich",47.3812262,8.492064599999999,"['supermarket', 'grocery_or_supermarket', 'food', 'point_of_interest', 'store', 'establishment']",ChIJveXMlc0LkEcRWZQ2vZgEn3o,8047,http://www.migrolino.ch/,https://maps.google.com/?cid=8835786047980213337,_cid=8835786047980213337,24.680672268907564
migrolino Hohlstrasse,"Hohlstrasse 544, Zrich",47.3904427,8.4911794,"['supermarket', 'grocery_or_supermarket', 'food', 'point_of_interest', 'store', 'establishment']",ChIJWy22IbYLkEcR0Pz8SVXcPJ0,8048,http://www.migrolino.ch/,https://maps.google.com/?cid=11330173021428972752,_cid=11330173021428972752,44.767857142857146
Coop Supermarkt Zrich Letzipark,"Baslerstrasse 50, Zrich",47.3859855,8.499333,"['supermarket', 'grocery_or_supermarket', 'food', 'point_of_interest', 'store', 'establishment']",ChIJyRiXxDQKkEcRDb6eO6wEZmg,8066,https://www.coop.ch/de/standorte/coop-supermarkt-zuerich-letzipark/1983_POS,https://maps.google.com/?cid=7522705365350137357,_cid=7522705365350137357,47.21212121212121
Tamil kadai Zurich,"Buckhauserstrasse 7-1, Zrich",47.3866472,8.493705,"['grocery_or_supermarket', 'food', 'point_of_interest', 'store', 'establishment']",ChIJ00nCxEsLkEcR8wgRiIXNY7A,8048,,https://maps.google.com/?cid=12710228546766833907,,
Denner Discount,"Baslerstrasse 50, Zrich",47.38579319999999,8.499642300000001,"['supermarket', 'grocery_or_supermarket', 'food', 'point_of_interest', 'store', 'establishment']",ChIJ7cqQxDQKkEcRmROfYcw7PUU,8048,https://www.denner.ch/,https://maps.google.com/?cid=4989209711193559961,_cid=4989209711193559961,43.13636363636363
Coop Supermarkt Zrich Maagplatz,"Maagpl. 1, Zrich",47.3859754,8.5161538,"['supermarket', 'grocery_or_supermarket', 'food', 'point_of_interest', 'store', 'establishment']",ChIJ_9A0iXFzkEcRGO4MkdFBzrc,8005,https://www.coop.ch/de/standorte/coop-supermarkt-zuerich-maagplatz/5013_POS,https://maps.google.com/?cid=13244595922480721432,_cid=13244595922480721432,36.63291139240506
Coop Supermarkt Pfingstweidstrasse Prime 2,"Maschinenstrasse 10, Zrich",47.387401,8.517362,"['supermarket', 'grocery_or_supermarket', 'food', 'point_of_interest', 'store', 'establishment']",ChIJuYcXq00LkEcRwkQs_vtH_X4,8005,https://www.coop.ch/de/standorte/coop-supermarkt-pfingstweidstrasse-prime-2/5240_POS,https://maps.google.com/?cid=9150549165513393346,_cid=9150549165513393346,46.41666666666666
Coop Supermarkt Zrich Hard Turm Park,"Pfingstweidstrasse 106, Zrich",47.3911161,8.5080114,"['supermarket', 'grocery_or_supermarket', 'food', 'point_of_interest', 'store', 'establishment']",ChIJPWPbBkkKkEcR8X-nb94BlVI,8005,https://www.coop.ch/de/standorte/coop-supermarkt-zuerich-hard-turm-park/3311_POS,https://maps.google.com/?cid=5950664537507594225,_cid=5950664537507594225,33.02272727272727
Migros-Supermarkt,"Pfingstweidstrasse 101, Zrich",47.3902225,8.508951999999999,"['grocery_or_supermarket', 'supermarket', 'food', 'point_of_interest', 'store', 'establishment']",ChIJP2csREgKkEcRSAGtX2mbhGM,8005,https://filialen.migros.ch/de/migros-supermarkt-zuerich-herdern,https://maps.google.com/?cid=7171027383559717192,_cid=7171027383559717192,60.93650793650794
Coop Pronto Shop,"Hardstrasse 221, Zrich",47.386452,8.5177126,"['supermarket', 'grocery_or_supermarket', 'food', 'point_of_interest', 'store', 'establishment']",ChIJS-n6eD8KkEcRp-VCGao7OuA,8005,https://www.coop-pronto.ch/de/standort/zuerich-prime-tower/,https://maps.google.com/?cid=16157292214899369383,_cid=16157292214899369383,38.21428571428572
DK Lebensmittel Handel,"Hardstrasse 190, Zrich",47.38612999999999,8.518146,"['grocery_or_supermarket', 'food', 'point_of_interest', 'store', 'establishment']",ChIJ_RrwR2ekmkcRGBfhxKLwygg,8005,,https://maps.google.com/?cid=633583279477430040,,
Coop Supermarkt Zrich Josefstrasse,"Rntgenstrasse 48, Zrich",47.3847527,8.527192099999999,"['supermarket', 'grocery_or_supermarket', 'food', 'point_of_interest', 'store', 'establishment']",ChIJBw6ifhQKkEcRfijxLgDRXOQ,8005,https://www.coop.ch/de/standorte/coop-supermarkt-zuerich-josefstrasse/1596_POS,https://maps.google.com/?cid=16455256937222711422,_cid=16455256937222711422,51.32142857142857
Sindi Markt GmbH,"Josefstrasse 186, Zrich",47.3859333,8.525167999999999,"['grocery_or_supermarket', 'food', 'point_of_interest', 'store', 'establishment']",ChIJ8QjK4xQKkEcR8b6WOKnmBnc,8005,,https://maps.google.com/?cid=8576796154846953201,,
Schaulager,"Hohlstrasse 283, Zrich",47.383485,8.5123739,"['supermarket', 'grocery_or_supermarket', 'food', 'point_of_interest', 'store', 'establishment']",ChIJcw_b1TsKkEcRKcUBfxGmc_c,8004,,https://maps.google.com/?cid=17830777943765402921,,
Coop Supermarkt Zrich Puls 5,"Giessereistrasse 18, Zrich",47.3908033,8.5178652,"['supermarket', 'grocery_or_supermarket', 'food', 'point_of_interest', 'store', 'establishment']",ChIJXWesJkEKkEcRMMVu8fdKVq4,8005,https://www.coop.ch/de/standorte/coop-supermarkt-zuerich-puls-5/5180_POS,https://maps.google.com/?cid=12562310639364523312,_cid=12562310639364523312,26.2
Migros Supermarkt,"Hardturmstrasse 11, Zrich",47.391336,8.518552999999999,"['grocery_or_supermarket', 'supermarket', 'food', 'point_of_interest', 'store', 'establishment']",ChIJP2csREgKkEcRi_XFDJQZXFw,8005,https://filialen.migros.ch/de/migros-supermarkt-zuerich-puls-5-m-express,https://maps.google.com/?cid=6655222473006904715,_cid=6655222473006904715,22.15714285714286
SP enterprise GmbH ( .  .  ),"Rntgenstrasse 66, Zrich",47.38568069999999,8.5270084,"['grocery_or_supermarket', 'food', 'point_of_interest', 'store', 'establishment']",ChIJdVC7rf4LkEcRdOTxr48VtIQ,8005,,https://maps.google.com/?cid=9562291615690777716,_cid=9562291615690777716,33.28260869565217
Migros Supermarkt,"Limmatstrasse 152, Zrich",47.3854632,8.5314088,"['grocery_or_supermarket', 'supermarket', 'food', 'point_of_interest', 'store', 'establishment']",ChIJS6CT8QgKkEcRVC558wYywsQ,8005,https://filialen.migros.ch/de/migros-supermarkt-zuerich-limmatplatz,https://maps.google.com/?cid=14177949582351740500,_cid=14177949582351740500,71.97435897435898
Migros Supermarkt,"Winterthurerstrasse 2/4, Zrich",47.3860603,8.548691,"['grocery_or_supermarket', 'supermarket', 'food', 'point_of_interest', 'store', 'establishment']",ChIJazOmhZ-gmkcRAKhgefA24EM,8006,https://filialen.migros.ch/de/migros-supermarkt-zuerich-rigiplatz,https://maps.google.com/?cid=4890969601780787200,_cid=4890969601780787200,56.62820512820513
Maxi Frischmarkt Zrich,"Ottikerstrasse 4, Zrich",47.38534079999999,8.5421604,"['grocery_or_supermarket', 'food', 'point_of_interest', 'store', 'establishment']",ChIJMQVFOwsKkEcRhxmXZbzieck,8006,,https://maps.google.com/?cid=14517884172591634823,_cid=14517884172591634823,43.273809523809526
Feinkost aus Ungarn (Metzgerei und Partyservice),"Rtelstrasse 1, Zrich",47.3893935,8.538520799999999,"['supermarket', 'grocery_or_supermarket', 'food', 'point_of_interest', 'store', 'establishment']",ChIJEZIdrHMKkEcR-uuNx0IgPKs,8006,https://ungarischer-laden.shop/,https://maps.google.com/?cid=12338772550276213754,_cid=12338772550276213754,54.65116279069768
Die Marke ICH,"Turnerstrasse 31, Zrich",47.3860884,8.5431619,"['grocery_or_supermarket', 'food', 'point_of_interest', 'store', 'establishment']",ChIJqxyMKgsKkEcR46VhF2iQ0W8,8006,https://www.diemarkeich.ch/kontakt/,https://maps.google.com/?cid=8057379985085801955,,
Mini Preo Import GmbH,"Riedtlistrasse 1, Zrich",47.3906297,8.5399768,"['grocery_or_supermarket', 'food', 'point_of_interest', 'store', 'establishment']",ChIJU29L6HMKkEcRHqGIOSSPKhI,8006,,https://maps.google.com/?cid=1309016027451400478,_cid=1309016027451400478,35.983050847457626
SPAR Supermarkt Dbendorf,"u. Geerenstrasse 1, Dbendorf",47.389641,8.617294,"['supermarket', 'grocery_or_supermarket', 'food', 'point_of_interest', 'store', 'establishment']",ChIJUfc9YhKhmkcRoJSvsvxspwY,8600,https://www.spar.ch/,https://maps.google.com/?cid=479471717923656864,_cid=479471717923656864,53.28915662650602
Migros Supermarkt,"Badenerstrasse 57, Schlieren",47.3961273,8.4377924,"['grocery_or_supermarket', 'supermarket', 'food', 'point_of_interest', 'store', 'establishment']",ChIJnTSJA20MkEcRmkLVGiV0lqg,8952,https://filialen.migros.ch/de/migros-supermarkt-schlieren-kesslerplatz,https://maps.google.com/?cid=12148024747591287450,_cid=12148024747591287450,63.457142857142856
SPAR Supermarkt Schlieren,"Badenerstrasse 104, Schlieren",47.3973206,8.4310309,"['supermarket', 'grocery_or_supermarket', 'food', 'point_of_interest', 'store', 'establishment']",ChIJSQ7FarANkEcRT5b4QxDirUM,8952,http://www.spar.ch/,https://maps.google.com/?cid=4876802530999834191,_cid=4876802530999834191,48.68421052631579
migrolino Schlieren,"Badenerstrasse 41, Schlieren",47.3963617,8.4403674,"['supermarket', 'grocery_or_supermarket', 'food', 'point_of_interest', 'store', 'establishment']",ChIJnVwOsHYMkEcRMv3igsBzE0Q,8952,http://www.migrolino.ch/,https://maps.google.com/?cid=4905391689803431218,_cid=4905391689803431218,33.1015625
ALIMA Supermarkt,"Nassackerstrasse 10, Schlieren",47.395815,8.4418369,"['grocery_or_supermarket', 'food', 'point_of_interest', 'store', 'establishment']",ChIJH1NG8XIMkEcRWjboiS4fCjI,8952,,https://maps.google.com/?cid=3605728736406156890,_cid=3605728736406156890,31.785714285714285
Denner Express,"Freiestrasse 52, Schlieren",47.396083,8.439446,"['supermarket', 'grocery_or_supermarket', 'food', 'point_of_interest', 'store', 'establishment']",ChIJtVUAfG0MkEcRdmOIjNFAbCY,8952,https://www.denner.ch/,https://maps.google.com/?cid=2768659139676103542,_cid=2768659139676103542,44.91428571428571
Netto,"Brunngasse, Schlieren",47.3967591,8.4475886,"['grocery_or_supermarket', 'food', 'point_of_interest', 'store', 'establishment']",ChIJkbIJQXQMkEcRcCmWfT2ey9M,8952,http://www.nettoschlieren.ch/,https://maps.google.com/?cid=15261465749212244336,_cid=15261465749212244336,49.45555555555556
Coop Supermarkt Schlieren Lilie,"Zrcherstrasse 6, Schlieren",47.3973601,8.4487969,"['supermarket', 'grocery_or_supermarket', 'food', 'point_of_interest', 'store', 'establishment']",ChIJ--9aMXQMkEcRWdvS9sgAMQI,8952,https://www.coop.ch/de/standorte/coop-supermarkt-schlieren-lilie/1957_POS,https://maps.google.com/?cid=157908325069151065,_cid=157908325069151065,57.85714285714285
Red Apple-Shop | LebensmittelBckereiMetzgerei,"Uitikonerstrasse 4, Schlieren",47.396939,8.4477651,"['supermarket', 'grocery_or_supermarket', 'food', 'point_of_interest', 'store', 'establishment']",ChIJm7m7QXQMkEcRXN9Q367E3D8,8952,,https://maps.google.com/?cid=4601769174615777116,,
Meyer Obstgarten,"Pestalozziweg 23, Schlieren",47.3922778,8.464357399999999,"['grocery_or_supermarket', 'food', 'point_of_interest', 'store', 'establishment']",ChIJbTit2YYLkEcRsAKxC_xT7dc,8952,,https://maps.google.com/?cid=15559184629627945648,,
Coop Supermarkt Zrich Vulkanstrasse,"Vulkanstrasse 108, Zrich",47.39354960000001,8.483847599999999,"['supermarket', 'grocery_or_supermarket', 'food', 'point_of_interest', 'store', 'establishment']",ChIJhVuN5FMLkEcRFnlKkzsRQ44,8048,https://www.coop.ch/de/standorte/coop-supermarkt-zuerich-vulkanstrasse/5629_POS,https://maps.google.com/?cid=10251056124397254934,_cid=10251056124397254934,36.68292682926829
Fresh & Good GmbH,"Badenerstrasse 672, Zrich",47.3879971,8.486377599999999,"['grocery_or_supermarket', 'food', 'point_of_interest', 'store', 'establishment']",ChIJ415Mh8gLkEcRnVwRBt_H8Zo,8048,,https://maps.google.com/?cid=11164924711921605789,_cid=11164924711921605789,43.77777777777778
Coop Supermarkt Zrich Westlink,"Vulkanpl., Zrich",47.3921018,8.4901313,"['supermarket', 'grocery_or_supermarket', 'food', 'point_of_interest', 'store', 'establishment']",ChIJn6zJrbcLkEcRbx0r_Fr7fVA,8048,https://www.coop.ch/de/standorte/coop-supermarkt-zuerich-westlink/4873_POS,https://maps.google.com/?cid=5800068263319379311,_cid=5800068263319379311,47.96296296296296
MIGROS Markthalle,"Altstetterstrasse 133, Zrich",47.38900659999999,8.4869928,"['supermarket', 'grocery_or_supermarket', 'food', 'point_of_interest', 'store', 'establishment']",ChIJa2KRqqkLkEcRvP2wROxuDuU,8048,,https://maps.google.com/?cid=16505251645403233724,,
Olio De Sando,"Saumackerstrasse, Zrich",47.3867355,8.4880973,"['grocery_or_supermarket', 'food', 'point_of_interest', 'store', 'establishment']",ChIJjUINVMgLkEcR1wRVrFkVNcE,8048,,https://maps.google.com/?cid=13922057297973282007,,
Blubber Drink Shop,"Hohlstrasse 452, Zrich",47.38904729999999,8.495903499999999,"['grocery_or_supermarket', 'food', 'point_of_interest', 'store', 'establishment']",ChIJ1UK4pikLkEcRQOMou5Aq__s,8048,,https://maps.google.com/?cid=18158279023684805440,,
SPAR express Zrich Hardturmstrasse,"Hardturmstrasse 126, Zrich",47.3935571,8.513138000000001,"['grocery_or_supermarket', 'supermarket', 'food', 'point_of_interest', 'store', 'establishment']",ChIJPYPcg-ULkEcR3fwzpotDONM,8005,https://www.spar.ch/,https://maps.google.com/?cid=15219989207766531293,_cid=15219989207766531293,35.310810810810814
Lidl Schweiz,"Frrlibuckstrasse 62, Zrich",47.3924813,8.5156983,"['supermarket', 'convenience_store', 'grocery_or_supermarket', 'home_goods_store', 'food', 'point_of_interest', 'clothing_store', 'store', 'establishment']",ChIJyzfNMz8LkEcRQoUMrhNYjOA,8005,https://www.lidl.ch/,https://maps.google.com/?cid=16180404402783028546,_cid=16180404402783028546,69.41666666666667
VOI Migros Partner,Zrich,47.3953139,8.5183428,"['supermarket', 'grocery_or_supermarket', 'food', 'point_of_interest', 'store', 'establishment']",ChIJNSxIal0LkEcRAGefUzc2NVo,8037,https://www.voi-migrospartner.ch/,https://maps.google.com/?cid=6500161248433235712,,
Lidl Schweiz,"Gaswerkstrasse 2, Zrich",47.3921612,8.5156443,"['supermarket', 'grocery_or_supermarket', 'food', 'point_of_interest', 'store', 'establishment']",ChIJJ78TAlQLkEcRakO_0HBnpHE,8952,https://www.lidl.ch/,https://maps.google.com/?cid=8188783756702597994,,
Marronistand Ampersteig,"Zrichparis, Hardturmstrasse 66, Zrich",47.39215799999999,8.519001099999999,"['grocery_or_supermarket', 'food', 'point_of_interest', 'store', 'establishment']",ChIJ7WAcvg4LkEcRiyFOnDvX_PY,8005,,https://maps.google.com/?cid=17797336478486765963,,
Migros Supermarkt,"Scheffelstrasse 3, Zrich",47.3936978,8.5292442,"['grocery_or_supermarket', 'supermarket', 'food', 'point_of_interest', 'store', 'establishment']",ChIJLxZ8OWkKkEcRoMGRw8QAStI,8037,https://filialen.migros.ch/de/migros-supermarkt-zuerich-wipkingen,https://maps.google.com/?cid=15152924741336154528,_cid=15152924741336154528,48.345238095238095
Coop Supermarkt Zrich Wipkingerbrcke,"Rschibachstrasse 22, Zrich",47.3926356,8.524665299999999,"['supermarket', 'grocery_or_supermarket', 'food', 'point_of_interest', 'store', 'establishment']",ChIJ-Vog-GkKkEcRSpN3HDvClnY,8037,https://www.coop.ch/de/standorte/coop-supermarkt-zuerich-wipkingerbruecke/1241_POS,https://maps.google.com/?cid=8545230902118552394,_cid=8545230902118552394,50.94871794871795
Coop Supermarkt Zrich Scheffelstrasse,"Scheffelstrasse 12, Zrich",47.3938032,8.5295861,"['supermarket', 'grocery_or_supermarket', 'food', 'point_of_interest', 'store', 'establishment']",ChIJWcZrL2kKkEcRdFqDH3JcdDE,8037,https://www.coop.ch/de/standorte/coop-supermarkt-zuerich-scheffelstrasse/1098_POS,https://maps.google.com/?cid=3563574850381634164,_cid=3563574850381634164,49.095238095238095
Migros,"Schaffhauserstrasse 75, Zrich",47.3925449,8.5384839,"['grocery_or_supermarket', 'supermarket', 'food', 'point_of_interest', 'store', 'establishment']",ChIJlRZDn3EKkEcRWFjwece2Dn4,8057,https://filialen.migros.ch/de/migros-supermarkt-zuerich-schaffhauserplatz,https://maps.google.com/?cid=9083398466313410648,_cid=9083398466313410648,46.35714285714285
Coop Supermarkt Zrich Milchbuck,"Milchbuckstrasse 1/5, Zrich",47.3954544,8.540429699999999,"['supermarket', 'grocery_or_supermarket', 'food', 'point_of_interest', 'store', 'establishment']",ChIJXU7khXAKkEcRyiofAm8qceM,8057,https://www.coop.ch/de/standorte/coop-supermarkt-zuerich-milchbuck/1248_POS,https://maps.google.com/?cid=16388927175243279050,_cid=16388927175243279050,51.48809523809524
Coop Pronto Shop,"Hofwiesenstrasse 5, Zrich",47.3922211,8.5381115,"['supermarket', 'grocery_or_supermarket', 'food', 'point_of_interest', 'store', 'establishment']",ChIJHbxHkHEKkEcRkRNwHHIy1bo,8057,https://www.coop-pronto.ch/de/standort/zuerich-hofwiesenstrasse/,https://maps.google.com/?cid=13462722126778733457,_cid=13462722126778733457,33.53921568627451
Azahar Fairtrade-Bio Laden,"Weinbergstrasse 168, Zrich",47.3914007,8.5392706,"['grocery_or_supermarket', 'food', 'point_of_interest', 'store', 'establishment']",ChIJsw78fXEKkEcRA2uMM9WXbeU,8006,,https://maps.google.com/?cid=16532036749095627523,,
Migros Supermarkt,"Am Stadtrand 5, Dbendorf",47.3969345,8.5970268,"['grocery_or_supermarket', 'supermarket', 'food', 'point_of_interest', 'store', 'establishment']",ChIJO_Bi-uGhmkcRqHw0ErA25dI,8600,https://filialen.migros.ch/de/migros-supermarkt-duebendorf-stettbach,https://maps.google.com/?cid=15196612647479180456,_cid=15196612647479180456,49.48717948717949
Coop Pronto Shop,"Dbendorfstrasse 447, Zrich",47.3972115,8.5963125,"['supermarket', 'grocery_or_supermarket', 'food', 'point_of_interest', 'store', 'establishment']",ChIJHfeTnP6gmkcRybLRujGHF8g,8051,https://www.coop-pronto.ch/de/standort/zuerich-stettbach-bahnhof/,https://maps.google.com/?cid=14418141379707384521,_cid=14418141379707384521,43.90677966101695
migrolino Dbendorf Sonnental,"Zrichstrasse 89, Dbendorf",47.3955583,8.606041,"['supermarket', 'grocery_or_supermarket', 'food', 'point_of_interest', 'store', 'establishment']",ChIJryrb_gOhmkcR7yZZ9EAXt0Q,8600,http://www.migrolino.ch/,https://maps.google.com/?cid=4951451883061978863,_cid=4951451883061978863,40.35643564356435
Denner Discount,"Neuweg 4, Dbendorf",47.3964006,8.6129674,"['supermarket', 'grocery_or_supermarket', 'food', 'point_of_interest', 'store', 'establishment']",ChIJw4wDeQqhmkcRay2o_rgtNkk,8600,https://www.denner.ch/,https://maps.google.com/?cid=5275454286080781675,_cid=5275454286080781675,48.84615384615385
Lidl,"Reitmenstrasse 5, Schlieren",47.3992852,8.4325058,"['supermarket', 'convenience_store', 'grocery_or_supermarket', 'home_goods_store', 'food', 'point_of_interest', 'clothing_store', 'store', 'establishment']",ChIJLWHT12sMkEcRmSuzLQv5y5k,8952,https://www.lidl.ch/,https://maps.google.com/?cid=11082225134481910681,_cid=11082225134481910681,47.63095238095238
R T S KIOSK & SHOP,"Zrcherstrasse 236, Dietikon",47.3969641,8.425515599999999,"['grocery_or_supermarket', 'food', 'point_of_interest', 'store', 'establishment']",ChIJwbi5MYgNkEcRaMvgIT4y-0o,8953,,https://maps.google.com/?cid=5402967420398783336,,
Migros Supermarkt,"Rietbachstrasse 14, Schlieren",47.4004418,8.4350087,"['grocery_or_supermarket', 'supermarket', 'food', 'point_of_interest', 'store', 'establishment']",ChIJ1UHhhy0NkEcRLpBuuvXgtDc,8952,https://filialen.migros.ch/de/migros-supermarkt-schlieren-rietbach,https://maps.google.com/?cid=4014080513893371950,_cid=4014080513893371950,45.888888888888886
Mr. Presidente GmbH,"Giessenstrasse 11, Dietikon",47.4011635,8.425247299999999,"['grocery_or_supermarket', 'food', 'point_of_interest', 'store', 'establishment']",ChIJgSN3uEMMkEcRh7GY34I6hD8,8953,https://www.misterpresidente.ch/,https://maps.google.com/?cid=4576847455086752135,,
Coop Supermarkt Dietikon Brunau,"Birmensdorferstrasse 9, Dietikon",47.398141,8.4178655,"['supermarket', 'grocery_or_supermarket', 'food', 'point_of_interest', 'store', 'establishment']",ChIJW4YGS0YMkEcRrAUv1oEcnI4,8953,https://www.coop.ch/de/standorte/coop-supermarkt-dietikon-brunau/1837_POS,https://maps.google.com/?cid=10276119793722394028,_cid=10276119793722394028,56.833333333333336
Coop Supermarkt Schlieren Rietpark,"Goldschlgipl. 5, Schlieren",47.3997563,8.4418133,"['supermarket', 'grocery_or_supermarket', 'food', 'point_of_interest', 'store', 'establishment']",ChIJr2dX33EMkEcR6Om4SqsKZXw,8952,https://www.coop.ch/de/standorte/coop-supermarkt-schlieren-rietpark/4689_POS,https://maps.google.com/?cid=8963582364160158184,_cid=8963582364160158184,58.67948717948718
Migros Supermarkt,"Gterstrasse 5, Schlieren",47.3983518,8.447123,"['grocery_or_supermarket', 'supermarket', 'food', 'point_of_interest', 'store', 'establishment']",ChIJBXdqqnYMkEcRKZWiLP4YA8U,8952,https://filialen.migros.ch/de/migros-supermarkt-schlieren-zentrum,https://maps.google.com/?cid=14196217930351547689,_cid=14196217930351547689,55.44285714285714
ALDI Schlieren,"Goldschlgipl. 3, Schlieren",47.40016319999999,8.4416286,"['supermarket', 'grocery_or_supermarket', 'food', 'point_of_interest', 'store', 'establishment']",ChIJr2dX33EMkEcRfmUG6OCMWzI,8952,https://www.aldi-suisse.ch/de/,https://maps.google.com/?cid=3628648822370362750,_cid=3628648822370362750,53.66666666666666
migrolino Schlieren,"Gterstrasse 3, Schlieren",47.3988491,8.4474854,"['supermarket', 'grocery_or_supermarket', 'food', 'point_of_interest', 'store', 'establishment']",ChIJnVwOsHYMkEcRw6TEPj-Dfv0,8952,http://www.migrolino.ch/,https://maps.google.com/?cid=18266181446320563395,,
Denner Discount,"Rietbachstrasse 14, Schlieren",47.400616,8.4352448,"['supermarket', 'grocery_or_supermarket', 'food', 'point_of_interest', 'store', 'establishment']",ChIJV3OxQlgNkEcRMDPYbvIeo7c,8952,https://www.denner.ch/,https://maps.google.com/?cid=13232454156735230768,_cid=13232454156735230768,52.16666666666666
Thraki GmbH,"Gaswerkstrasse 2, Schlieren",47.40251680000001,8.4577569,"['grocery_or_supermarket', 'food', 'point_of_interest', 'store', 'establishment']",ChIJhf5rIYYLkEcR0fmij8_xVFA,8952,http://thraki.ch/,https://maps.google.com/?cid=5788517294848276945,_cid=5788517294848276945,54.109375
Denner Discount,"Einkaufszentrum Lilie, Uitikonerstrasse 9, Schlieren",47.39682939999999,8.448775699999999,"['supermarket', 'grocery_or_supermarket', 'food', 'point_of_interest', 'store', 'establishment']",ChIJwfYnSnQMkEcRO6E1Ik2TWes,8952,https://www.denner.ch/,https://maps.google.com/?cid=16958747831336018235,_cid=16958747831336018235,40.85714285714285
Aligro Schlieren - Wholesaler for food,"Bernerstrasse 335, Schlieren",47.3994084,8.4667623,"['supermarket', 'grocery_or_supermarket', 'food', 'point_of_interest', 'store', 'establishment']",ChIJlQePS5ALkEcRR6m--__GFmM,8952,https://www.aligro.ch/,https://maps.google.com/?cid=7140113061985036615,_cid=7140113061985036615,41.48571428571429
Coop Supermarkt Zrich Hnggermarkt,"Regensdorferstrasse 9, Zrich",47.4026805,8.4983802,"['supermarket', 'grocery_or_supermarket', 'food', 'point_of_interest', 'store', 'establishment']",ChIJ8WTzRqwLkEcRgLJV1RR5rFw,8049,https://www.coop.ch/de/standorte/coop-supermarkt-zuerich-hoenggermarkt/1906_POS,https://maps.google.com/?cid=6677845477869073024,_cid=6677845477869073024,54.22222222222222
Migros Supermarkt,"Regensdorferstrasse 20, Zrich",47.4037541,8.4971855,"['grocery_or_supermarket', 'supermarket', 'food', 'point_of_interest', 'store', 'establishment']",ChIJ92HZaqwLkEcReaQdY-aJ7WQ,8049,https://filialen.migros.ch/de/migros-supermarkt-zuerich-hoengg,https://maps.google.com/?cid=7272620595871589497,_cid=7272620595871589497,56.55555555555556
Alnatura Bio Super Markt,"Kappenbhlweg 5, Zrich",47.4033686,8.4980183,"['grocery_or_supermarket', 'food', 'point_of_interest', 'store', 'establishment']",ChIJR3tEQKwLkEcRkq_X0hE7IEY,8049,https://alnatura.migros.ch/de/filialfinder#alnatura-bio-super-markt-alnatura-bio-super-markt-zuerich-hoengg,https://maps.google.com/?cid=5053103729647529874,_cid=5053103729647529874,52.98484848484848
African Kiwanda,"Ackersteinstrasse 120, Zrich",47.3979465,8.5055184,"['grocery_or_supermarket', 'food', 'point_of_interest', 'store', 'establishment']",ChIJ2_57lE0KkEcRP5fNLECGX2c,8049,http://www.african-kiwanda.ch/index.php?option=com_content&view=article&id=2&Itemid=4&lang=de,https://maps.google.com/?cid=7448819918881789759,,
CM Lebensmittel,"Wehntalerstrasse 94, Zrich",47.40234969999999,8.5359508,"['supermarket', 'grocery_or_supermarket', 'food', 'point_of_interest', 'store', 'establishment']",ChIJ0a6HnWMKkEcR1zKF184blbM,8057,,https://maps.google.com/?cid=12940279679512031959,,
Eva's Apples,"Weinbergstrasse 168, Zrich",47.3914305,8.539114,"['grocery_or_supermarket', 'food', 'point_of_interest', 'store', 'establishment']",ChIJs6P91XMKkEcRy8xQEpszZZE,8006,http://www.evas-apples.ch/,https://maps.google.com/?cid=10476836849267559627,_cid=10476836849267559627,41.35849056603774
Eurospar,"Schaffhauserstrasse 239, Zrich",47.4032178,8.5469741,"['supermarket', 'grocery_or_supermarket', 'food', 'point_of_interest', 'store', 'establishment']",ChIJV2kfW34KkEcRxMBrKw77TPs,8057,https://www.spar.ch/spar-maerkte/spar-bernina-imbimbo/,https://maps.google.com/?cid=18108124240026517700,_cid=18108124240026517700,60.66666666666666
Lian Hua,"Schaffhauserstrasse 269, Zrich",47.4041072,8.547936199999999,"['grocery_or_supermarket', 'food', 'point_of_interest', 'store', 'establishment']",ChIJT_6uSH4KkEcRoFJGZxuqPNE,8057,http://www.lianhua.ch/de,https://maps.google.com/?cid=15077112687203078816,_cid=15077112687203078816,39.25
Waldgartenmarket gmbH,"Schneichstrasse 7, Zrich",47.4041621,8.5572378,"['grocery_or_supermarket', 'food', 'point_of_interest', 'store', 'establishment']",ChIJHYbnBBahmkcRUWlqfOeyy04,8051,,https://maps.google.com/?cid=5677828462525180241,,
Migros Supermarkt,"Winterthurerstrasse 524, Zrich",47.4039944,8.5729583,"['grocery_or_supermarket', 'supermarket', 'food', 'point_of_interest', 'store', 'establishment']",ChIJNf461GGgmkcRAkbN-OIoL8g,8051,https://filialen.migros.ch/de/migros-supermarkt-zuerich-schwamendingen,https://maps.google.com/?cid=14424793086792910338,_cid=14424793086792910338,58.86111111111112
Maxim Spermarket GmbH,"Winterthurerstrasse 520, Zrich",47.4037702,8.5721625,"['supermarket', 'grocery_or_supermarket', 'food', 'point_of_interest', 'store', 'establishment']",ChIJO1wFeIqgmkcRQkYlgiYM0kA,8051,,https://maps.google.com/?cid=4670809123068397122,_cid=4670809123068397122,49.05555555555556
Denner Discount,"Winterthurerstrasse 524, Zrich",47.4039316,8.5726414,"['supermarket', 'grocery_or_supermarket', 'food', 'point_of_interest', 'store', 'establishment']",ChIJzQIrcrehmkcRgXRMKjmOSsA,8051,https://www.denner.ch/,https://maps.google.com/?cid=13856043579732685953,,
Indian Shop - Epicerie,"Dbendorfstrasse 335, Zrich",47.3987536,8.5911026,"['supermarket', 'grocery_or_supermarket', 'food', 'point_of_interest', 'store', 'establishment']",ChIJb_NbFPmgmkcRH03vpG8Jy70,8051,,https://maps.google.com/?cid=13676035068553809183,_cid=13676035068553809183,57.09411764705882
Coop Supermarkt Zrich Hirzenbachstrasse,"Hirzenbachstrasse 40, Zrich",47.4034853,8.5893299,"['supermarket', 'grocery_or_supermarket', 'food', 'point_of_interest', 'store', 'establishment']",ChIJFZ5x7FegmkcRGLDfm8BTZlw,8051,https://www.coop.ch/de/standorte/coop-supermarkt-zuerich-hirzenbachstrasse/4592_POS,https://maps.google.com/?cid=6658101185827811352,_cid=6658101185827811352,48.92105263157895
Denner Discount,"Dbendorfstrasse 271, Zrich",47.4000868,8.5878648,"['supermarket', 'grocery_or_supermarket', 'food', 'point_of_interest', 'store', 'establishment']",ChIJmyluu8KhmkcRVDaQt0P7Dg8,8051,https://www.denner.ch/,https://maps.google.com/?cid=1085080828503930452,_cid=1085080828503930452,54.68055555555556
Migros Supermarkt,"Neugutstrasse 83, Dbendorf",47.4014347,8.6034625,"['grocery_or_supermarket', 'supermarket', 'food', 'point_of_interest', 'store', 'establishment']",ChIJH_llnQChmkcRwKoBGOEzcek,8600,https://filialen.migros.ch/de/migros-supermarkt-duebendorf-hochbord-nord,https://maps.google.com/?cid=16821283125068933824,_cid=16821283125068933824,41.03125
Branchengruppe Lebensmittel,"Auenstrasse, Dbendorf",47.39524919999999,8.598258399999999,"['grocery_or_supermarket', 'food', 'point_of_interest', 'store', 'establishment']",ChIJS8YqEwKhmkcR9crMiO1WdiQ,8600,http://branchengruppe.ch/branchengruppe/veledes-bildung.html,https://maps.google.com/?cid=2627383010819623669,,
migrolino Dbendorf (Bhlwiesen),"Ringstrasse 17, Dbendorf",47.39840040000001,8.605350699999999,"['supermarket', 'grocery_or_supermarket', 'food', 'point_of_interest', 'store', 'establishment']",ChIJJW4VzgahmkcRInTtfQdzztc,8600,http://www.migrolino.ch/,https://maps.google.com/?cid=15550493039371580450,_cid=15550493039371580450,48.24590163934426
migrolino Dbendorf Im Giessen,"Ueberlandstrasse 97, Dbendorf",47.4032396,8.607397599999999,"['supermarket', 'grocery_or_supermarket', 'food', 'point_of_interest', 'store', 'establishment']",ChIJCd3jm6mhmkcRiyv_y5p1hyg,8600,http://www.migrolino.ch/,https://maps.google.com/?cid=2920432191080967051,_cid=2920432191080967051,41.65413533834587
Beds supermarket Strahm AG,"Neugutstrasse 83, Dbendorf",47.4014171,8.6037132,"['furniture_store', 'home_goods_store', 'point_of_interest', 'store', 'establishment']",ChIJp3T6nAChmkcRa6uymFBugls,8600,http://www.betten-strahm.ch/,https://maps.google.com/?cid=6593954096862112619,,
Migros Supermarkt,"Unterdorfstrasse 7, Dbendorf",47.39826,8.617614999999999,"['grocery_or_supermarket', 'supermarket', 'food', 'point_of_interest', 'store', 'establishment']",ChIJzVpqLgqhmkcRluWrtRCHgbw,8600,https://filialen.migros.ch/de/migros-supermarkt-duebendorf,https://maps.google.com/?cid=13583286456963294614,_cid=13583286456963294614,50.86111111111112
Coop Supermarkt Dbendorf Center,"Adlerstrasse 1, Dbendorf",47.3976122,8.616562199999999,"['supermarket', 'grocery_or_supermarket', 'food', 'point_of_interest', 'store', 'establishment']",ChIJEze0YgmhmkcRAjYFmnktLZ4,8600,https://www.coop.ch/de/standorte/coop-supermarkt-duebendorf-center/1509_POS,https://maps.google.com/?cid=11397816232242918914,_cid=11397816232242918914,51.782051282051285
Migros Supermarkt,"Im Zentrum 2, Oberengstringen",47.40861109999999,8.4633333,"['grocery_or_supermarket', 'supermarket', 'food', 'point_of_interest', 'store', 'establishment']",ChIJc-rMuIMLkEcRLdI7PqxaPUk,8102,https://filialen.migros.ch/de/migros-supermarkt-oberengstringen,https://maps.google.com/?cid=5277474034173071917,_cid=5277474034173071917,58.263888888888886
Coop Supermarkt Oberengstringen,"Zrcherstrasse 149, Oberengstringen",47.4105615,8.457950199999999,"['supermarket', 'grocery_or_supermarket', 'food', 'point_of_interest', 'store', 'establishment']",ChIJnWMsaIALkEcR7H77SiaMUJA,8102,https://www.coop.ch/de/standorte/coop-supermarkt-oberengstringen/1257_POS,https://maps.google.com/?cid=10398965635693117164,_cid=10398965635693117164,60.01190476190476
Coop Supermarket,"Frankentalerstrasse 20, Zrich",47.4058702,8.4814171,"['supermarket', 'grocery_or_supermarket', 'food', 'point_of_interest', 'store', 'establishment']",ChIJfVT3iKELkEcRoIeBfxOeBNY,8049,https://www.coop.ch/de/standorte/coop-supermarkt-zuerich-bombach/4853_POS,https://maps.google.com/?cid=15421624830604183456,_cid=15421624830604183456,48.28089887640449
Coop Supermarkt Zrich ETH Hnggerberg,"Wolfgang-Pauli-Strasse 14, Zrich",47.4083915,8.507961,"['supermarket', 'grocery_or_supermarket', 'food', 'point_of_interest', 'store', 'establishment']",ChIJRw4SNB0LkEcRYhmPPYIP6qk,8049,https://www.coop.ch/de/standorte/coop-supermarkt-zuerich-eth-hoenggerberg/4851_POS,https://maps.google.com/?cid=12243615589013068130,_cid=12243615589013068130,37.69117647058823
Spar Supermarkt,"Regensbergstrasse 300, Zrich",47.41156429999999,8.5279268,"['supermarket', 'grocery_or_supermarket', 'food', 'point_of_interest', 'store', 'establishment']",ChIJSdpvmPQKkEcRVBkh0ZlVz2U,8050,https://www.spar.ch/,https://maps.google.com/?cid=7336176437136791892,_cid=7336176437136791892,54.0
Aksa Food Hngg AG,"Wehntalerstrasse 280, Zrich",47.4111762,8.5263727,"['supermarket', 'grocery_or_supermarket', 'food', 'point_of_interest', 'store', 'establishment']",ChIJmZBlYvQKkEcRyH-Vq7NwjfU,8046,http://www.aksafood.ch/,https://maps.google.com/?cid=17693922427988705224,_cid=17693922427988705224,55.263888888888886
ALDI Zrich,"Baumackerstrasse 35, Zrich",47.4089051,8.5435926,"['supermarket', 'grocery_or_supermarket', 'food', 'point_of_interest', 'store', 'establishment']",ChIJ4WVSVoYKkEcRmOW3387iN80,8050,https://www.aldi-suisse.ch/de/,https://maps.google.com/?cid=14787537279638824344,_cid=14787537279638824344,59.256410256410255
Migros Supermarkt,"Einkaufszentrum Neumarkt, Hofwiesenstrasse 350, Zrich",47.4106139,8.5428081,"['grocery_or_supermarket', 'supermarket', 'food', 'point_of_interest', 'store', 'establishment']",ChIJsbyGDYYKkEcReDOVUIRlDJI,8050,https://filialen.migros.ch/de/migros-supermarkt-zuerich-oerlikon-neumarkt,https://maps.google.com/?cid=10523898048220050296,_cid=10523898048220050296,56.30555555555556
Coop,"Hofwiesenstrasse 370, Zrich",47.4111989,8.544497,"['supermarket', 'grocery_or_supermarket', 'food', 'point_of_interest', 'store', 'establishment']",ChIJ1WK49PgLkEcRRjRLrDyP_qs,8050,https://www.coop.ch/de/standorte/coop-supermarkt-zuerich-hofwiesenstrasse/1417_POS,https://maps.google.com/?cid=12393500715321603142,_cid=12393500715321603142,40.8421052631579
Lidl Schweiz,"Hofwiesenstrasse 350, Zrich",47.4104947,8.5427327,"['supermarket', 'convenience_store', 'grocery_or_supermarket', 'home_goods_store', 'food', 'point_of_interest', 'clothing_store', 'store', 'establishment']",ChIJHa8zrMILkEcRN-g-c59BoPs,8050,https://www.lidl.ch/,https://maps.google.com/?cid=18131564252882724919,_cid=18131564252882724919,59.61538461538461
Lidl Schweiz,"Ohmstrasse 11, Zrich",47.4104512,8.5457171,"['supermarket', 'convenience_store', 'grocery_or_supermarket', 'home_goods_store', 'food', 'point_of_interest', 'clothing_store', 'store', 'establishment']",ChIJU0W-noYKkEcRXJuSYfWbBR8,8050,https://www.lidl.ch/,https://maps.google.com/?cid=2235364268265610076,_cid=2235364268265610076,71.53125
Coop Supermarkt Zrich Dorflinde,"Schwamendingenstrasse 39, Zrich",47.4076154,8.549924299999999,"['supermarket', 'grocery_or_supermarket', 'food', 'point_of_interest', 'store', 'establishment']",ChIJk3synY8KkEcRPiSd8bYbHLo,8050,https://www.coop.ch/de/standorte/coop-supermarkt-zuerich-dorflinde/1228_POS,https://maps.google.com/?cid=13410624262954099774,_cid=13410624262954099774,54.53846153846154
Optimal Express,"Franklinstrasse 8, Zrich",47.4090011,8.5458075,"['convenience_store', 'food', 'point_of_interest', 'store', 'establishment']",ChIJ432EoioLkEcRZx3ni1OKaWQ,8050,,https://maps.google.com/?cid=7235466367781510503,,
Halk Pazari Oerlikon,"Tramstrasse 10, Zrich",47.4089408,8.5474527,"['grocery_or_supermarket', 'food', 'point_of_interest', 'store', 'establishment']",ChIJmcMfMYEKkEcRKAxoZwjrx3I,8050,http://www.halkpazari.ch/,https://maps.google.com/?cid=8270837662016343080,_cid=8270837662016343080,60.71428571428572
Alnatura Bio Super Markt,"Baumackerstrasse 35, Zrich",47.4090151,8.5432963,"['grocery_or_supermarket', 'food', 'point_of_interest', 'store', 'establishment']",ChIJ4WVSVoYKkEcRxm3CmZcMhWo,8050,https://alnatura.migros.ch/de/filialfinder#alnatura-bio-super-markt-alnatura-bio-super-markt-oerlikon,https://maps.google.com/?cid=7675554985182129606,_cid=7675554985182129606,55.5
Weinguru GmbH,"Berninastrasse 52, Zrich",47.4038849,8.546928,"['grocery_or_supermarket', 'food', 'point_of_interest', 'store', 'establishment']",ChIJfUlmaH4KkEcRc7Hv-Cs8jvM,8057,http://www.biltong-house.ch/,https://maps.google.com/?cid=17550030957467119987,,
Coop City Zrich Oerlikon Food,"Wallisellenstrasse 1, Zrich",47.41037910000001,8.5466882,"['department_store', 'point_of_interest', 'store', 'establishment']",ChIJB1QWpoYKkEcRgWviq2UyNOk,8050,https://www.coop.ch/de/services/standorte-und-oeffnungszeiten/detail.html/2617/,https://maps.google.com/?cid=16804111521882991489,_cid=16804111521882991489,59.17142857142857
Coop Supermarkt Zrich Precisa,"Wallisellenstrasse 333, Zrich",47.4113768,8.562585,"['supermarket', 'grocery_or_supermarket', 'food', 'point_of_interest', 'store', 'establishment']",ChIJ91SLpnugmkcRpZoFHIFAWyY,8050,https://www.coop.ch/de/standorte/coop-supermarkt-zuerich-precisa/1909_POS,https://maps.google.com/?cid=2763873719587019429,_cid=2763873719587019429,56.75342465753425
producteurs,"Saatlenstrasse 261, Zrich",47.411103,8.5630592,"['grocery_or_supermarket', 'food', 'point_of_interest', 'store', 'establishment']",ChIJw-41CHugmkcRE77Jx8vQ-dE,8050,,https://maps.google.com/?cid=15130353996776717843,,
Coop,"Blaucker, Zrich",47.4049395,8.5715085,"['grocery_or_supermarket', 'food', 'point_of_interest', 'store', 'establishment']",ChIJ7wt662GgmkcRkyH2lASVMVQ,8051,,https://maps.google.com/?cid=6066794019956334995,,
Lidl,"Ueberlandstrasse 381, Zrich",47.4078098,8.585127199999999,"['supermarket', 'convenience_store', 'grocery_or_supermarket', 'home_goods_store', 'food', 'point_of_interest', 'clothing_store', 'store', 'establishment']",ChIJ_Ut8YlmgmkcRJF0zFEzklT8,8051,https://www.lidl.ch/,https://maps.google.com/?cid=4581819211326905636,_cid=4581819211326905636,55.26315789473684
ALDI Zrich,"Ueberlandstrasse 441, Zrich",47.4059845,8.5919026,"['supermarket', 'grocery_or_supermarket', 'food', 'point_of_interest', 'store', 'establishment']",ChIJUQ1xGVegmkcRtgKawr27tqk,8051,https://www.aldi-suisse.ch/de/,https://maps.google.com/?cid=12229168261859246774,_cid=12229168261859246774,53.30769230769231
Migros,"Neue Winterthurerstrasse 99, Wallisellen",47.4086459,8.595885599999999,"['grocery_or_supermarket', 'supermarket', 'food', 'point_of_interest', 'store', 'establishment']",ChIJYfpdXlGgmkcRXSOSQiWzJAY,8304,https://filialen.migros.ch/de/migros-supermarkt-wallisellen-glattzentrum,https://maps.google.com/?cid=442675636001186653,_cid=442675636001186653,51.01515151515152
Coop Supermarkt Wallisellen Richti-Shopping,"Neue Winterthurerstrasse 82, Wallisellen",47.4094811,8.5962266,"['supermarket', 'grocery_or_supermarket', 'food', 'point_of_interest', 'store', 'establishment']",ChIJZQIQK1KgmkcRw-eGTZy1VFw,8304,https://www.coop.ch/de/standorte/coop-supermarkt-wallisellen-richti-shopping/4954_POS,https://maps.google.com/?cid=6653142232453277635,_cid=6653142232453277635,45.024096385542165
Alnatura Bio Super Markt,"Einkaufszentrum Glatt, Neue Winterthurerstrasse 99, Wallisellen",47.4082738,8.5950007,"['grocery_or_supermarket', 'food', 'point_of_interest', 'store', 'establishment']",ChIJD2L_e0WgmkcRzjwSRIDTrtE,8304,https://alnatura.migros.ch/de/filialfinder#alnatura-bio-super-markt-alnatura-bio-super-markt-glattzentrum,https://maps.google.com/?cid=15109246347725913294,_cid=15109246347725913294,49.80303030303031
Coop Supermarkt Zrich Rtihof,"Rtihofstrasse 15, Zrich",47.4137347,8.4796167,"['supermarket', 'grocery_or_supermarket', 'food', 'point_of_interest', 'store', 'establishment']",ChIJzxVi73QLkEcRqPs8Nd-0uWU,8049,https://www.coop.ch/de/standorte/coop-supermarkt-zuerich-ruetihof/1725_POS,https://maps.google.com/?cid=7330088739286088616,_cid=7330088739286088616,54.05555555555556
Coop,"Therese-Giehse-Strasse 11, Zrich",47.41353429999999,8.5405438,"['grocery_or_supermarket', 'food', 'point_of_interest', 'store', 'establishment']",ChIJo1lin48KkEcRdeSCWxpiUk0,8050,http://www.coop.ch/,https://maps.google.com/?cid=5571623554354701429,_cid=5571623554354701429,38.583333333333336
Discount Markt,"Friesstrasse 34, Zrich",47.4160148,8.546398,"['grocery_or_supermarket', 'food', 'point_of_interest', 'store', 'establishment']",ChIJky9uLJsKkEcRQ4XY0cKiaPw,8050,,https://maps.google.com/?cid=18187966052763731267,,
Coop Supermarkt Zrich Andreasturm,"Andreasstrasse 5, Zrich",47.41290499999999,8.5473555,"['supermarket', 'grocery_or_supermarket', 'food', 'point_of_interest', 'store', 'establishment']",ChIJIbLL9VYLkEcRbWHefo1OQxw,8050,https://www.coop.ch/de/standorte/coop-supermarkt-zuerich-andreasturm/5609_POS,https://maps.google.com/?cid=2036557826127454573,_cid=2036557826127454573,52.25609756097561
Coop Pronto Shop,"Thurgauerstrasse 36, Zrich",47.4138904,8.5514837,"['supermarket', 'grocery_or_supermarket', 'food', 'point_of_interest', 'store', 'establishment']",ChIJuXsw4IIKkEcRBGWM58VaAdQ,8050,https://www.coop-pronto.ch/de/standort/zuerich-main-tower/,https://maps.google.com/?cid=15276591217057228036,_cid=15276591217057228036,22.235294117647054
migrolino-Shop,"Hagenholzstrasse 119, Kreis 11",47.4161031,8.563779,"['supermarket', 'grocery_or_supermarket', 'food', 'point_of_interest', 'store', 'establishment']",ChIJ7YYG8HCgmkcRDWHS5cFXmMc,8152,https://filialen.migros.ch/de/migrolino-opfikon,https://maps.google.com/?cid=14382341900303753485,_cid=14382341900303753485,61.4
Migros Supermarkt,"Bahnhofstrasse 30, Wallisellen",47.4135911,8.5918598,"['grocery_or_supermarket', 'supermarket', 'food', 'point_of_interest', 'store', 'establishment']",ChIJqz16kk-gmkcROqUWxEBuX_w,8304,https://filialen.migros.ch/de/migros-supermarkt-wallisellen,https://maps.google.com/?cid=18185375044792132922,_cid=18185375044792132922,50.34615384615385
Coop Supermarkt Wallisellen Bahnhofplatz,"Bahnhofpl. 2, Wallisellen",47.4130775,8.592942599999999,"['supermarket', 'grocery_or_supermarket', 'food', 'point_of_interest', 'store', 'establishment']",ChIJyU1Gvk-gmkcRWl0AbaYLbV4,8304,https://www.coop.ch/de/standorte/coop-supermarkt-wallisellen-bahnhofplatz/4120_POS,https://maps.google.com/?cid=6804107421447904602,_cid=6804107421447904602,45.13333333333333
Walliseller Markt,"Bahnhofstrasse 4, Wallisellen",47.4153171,8.5889352,"['grocery_or_supermarket', 'food', 'point_of_interest', 'store', 'establishment']",ChIJcz0crEWgmkcRC2LMZCa4c1E,8304,,https://maps.google.com/?cid=5869237214433272331,_cid=5869237214433272331,43.70512820512821
Denner Discount,"Bahnhofstrasse 9, Wallisellen",47.4143811,8.5910411,"['supermarket', 'grocery_or_supermarket', 'food', 'point_of_interest', 'store', 'establishment']",ChIJjV__e0WgmkcRNW4NTictIwA,8304,https://www.denner.ch/,https://maps.google.com/?cid=9901271021350453,_cid=9901271021350453,50.34615384615385
migrolino Wallisellen,"Husacherstrasse 2, Wallisellen",47.4081106,8.6019103,"['supermarket', 'grocery_or_supermarket', 'food', 'point_of_interest', 'store', 'establishment']",ChIJQW5EzKyhmkcRghtIBA1DW-0,8304,http://www.migrolino.ch/,https://maps.google.com/?cid=17103337733055060866,_cid=17103337733055060866,23.120689655172413
SPAR Supermarkt Weiningen,"Regensdorferstrasse 2, Weiningen",47.419928,8.434778,"['supermarket', 'grocery_or_supermarket', 'food', 'point_of_interest', 'store', 'establishment']",ChIJsbQzS_MMkEcRUydSS4c9xwA,8104,https://www.spar.ch/spar-maerkte/#?s=1,https://maps.google.com/?cid=56081171658975059,_cid=56081171658975059,69.85714285714286
SPAR Supermarkt,"Wehntalerstrasse 634, Zrich",47.4230502,8.4994137,"['supermarket', 'grocery_or_supermarket', 'food', 'point_of_interest', 'store', 'establishment']",ChIJU6SMMxoLkEcR4tUO0xSBz-A,8046,http://www.spar.ch/,https://maps.google.com/?cid=16199308311115257314,_cid=16199308311115257314,58.895833333333336
Lidl Schweiz,"Wehntalerstrasse 625, Zrich",47.4223919,8.4991596,"['supermarket', 'convenience_store', 'grocery_or_supermarket', 'home_goods_store', 'food', 'point_of_interest', 'clothing_store', 'store', 'establishment']",ChIJseGe3eQLkEcR4zpsLTAFO8k,8046,https://www.lidl.ch/,https://maps.google.com/?cid=14500189129728080611,_cid=14500189129728080611,51.02564102564103
Migros Supermarkt,"Jonas-Furrer-Strasse 21, Zrich",47.4200611,8.5085111,"['grocery_or_supermarket', 'supermarket', 'food', 'point_of_interest', 'store', 'establishment']",ChIJX0YjkOIKkEcRZDzIE1DlaOU,8046,https://filialen.migros.ch/de/migros-supermarkt-zuerich-affoltern,https://maps.google.com/?cid=16530714564355439716,_cid=16530714564355439716,59.263888888888886
Merdan Market,"Wehntalerstrasse 530, Zrich",47.4188586,8.5080522,"['supermarket', 'grocery_or_supermarket', 'food', 'point_of_interest', 'store', 'establishment']",ChIJAY1PruIKkEcRgStjZ2oZmQc,8046,,https://maps.google.com/?cid=547496774494006145,,
Coop Supermarkt Zrich Wehntalerstrasse,"Wehntalerstrasse 549, Zrich",47.4188871,8.5055923,"['supermarket', 'grocery_or_supermarket', 'food', 'point_of_interest', 'store', 'establishment']",ChIJRw4SNB0LkEcRExd1P9a5qdo,8046,https://www.coop.ch/de/standorte/coop-supermarkt-zuerich-wehntalerstrasse/1410_POS,https://maps.google.com/?cid=15756329101171169043,_cid=15756329101171169043,45.513888888888886
Maxim Food,"Wehntalerstrasse 530, Zrich",47.4186929,8.508191199999999,"['grocery_or_supermarket', 'food', 'point_of_interest', 'store', 'establishment']",ChIJV2GsruIKkEcR1M1BLOGI8yg,8046,,https://maps.google.com/?cid=2950852681549336020,_cid=2950852681549336020,43.80555555555556
migrolino Zrich Affoltern,"Riedenhaldenstrasse Bahnhof, Zrich",47.420995,8.5079988,"['supermarket', 'grocery_or_supermarket', 'food', 'point_of_interest', 'store', 'establishment']",ChIJa1C_eB0LkEcR-4dxh49_tZk,8046,http://www.migrolino.ch/,https://maps.google.com/?cid=11075899113017018363,_cid=11075899113017018363,39.17948717948718
"Corrado IMBIMBO's & Co., Frischmrkte","Wehntalerstrasse 634, Zrich",47.4231156,8.4992746,"['grocery_or_supermarket', 'food', 'point_of_interest', 'store', 'establishment']",ChIJU6SMMxoLkEcRqk4hFdX-C1w,8046,,https://maps.google.com/?cid=6632675067369180842,,
Guarana Porquao M. Mller,"Schwandenholzstrasse 210, Zrich",47.424659,8.522439199999999,"['grocery_or_supermarket', 'food', 'point_of_interest', 'store', 'establishment']",ChIJR-SQiegKkEcRbNSvuGSQn7w,8046,http://www.guaranin.org/,https://maps.google.com/?cid=13591740962697106540,,
Coop Supermarkt Zrich Schwellistrasse,"Schwellistrasse 69, Zrich",47.4248948,8.5377536,"['supermarket', 'grocery_or_supermarket', 'food', 'point_of_interest', 'store', 'establishment']",ChIJReNzlpUKkEcRZGI02kTFB4Q,8052,https://www.coop.ch/de/standorte/coop-supermarkt-zuerich-schwellistrasse/1841_POS,https://maps.google.com/?cid=9513789637352776292,_cid=9513789637352776292,50.06410256410256
Fresh Shop Supermarkt-Seebach,"Schaffhauserstrasse 459, Zrich",47.4184971,8.5468235,"['supermarket', 'grocery_or_supermarket', 'food', 'point_of_interest', 'store', 'establishment']",ChIJw7fdUpoKkEcR4yq7uEEAXEg,8052,https://m.facebook.com/pages/category/Grocery-Store/Fresh-Shop-Seebach-1569968429723961/?locale2=de_DE,https://maps.google.com/?cid=5214042750860339939,_cid=5214042750860339939,32.294642857142854
Migros Supermarkt,"Schaffhauserstrasse 470, Zrich",47.4195334,8.5483259,"['grocery_or_supermarket', 'supermarket', 'food', 'point_of_interest', 'store', 'establishment']",ChIJzcr5wpsKkEcR8OcT8pamnyI,8052,https://filialen.migros.ch/de/migros-supermarkt-zuerich-seebach,https://maps.google.com/?cid=2494895885823240176,_cid=2494895885823240176,62.263888888888886
P.A.S Markt Safari,"Schaffhauserstrasse 500, Zrich",47.4213914,8.5502617,"['grocery_or_supermarket', 'food', 'point_of_interest', 'store', 'establishment']",ChIJ5TTLSZkKkEcRZbyP7enQTmw,8052,https://peyamsafari.wixsite.com/pasmarkt,https://maps.google.com/?cid=7804404907411225701,_cid=7804404907411225701,57.46969696969697
claro Seebach,"Bahnhaldenstrasse 2, Zrich",47.419467,8.5469752,"['grocery_or_supermarket', 'food', 'point_of_interest', 'store', 'establishment']",ChIJoaAly5sKkEcR2UU-uMiShiw,8052,https://www.claroweltladen.ch/index.php/seebach,https://maps.google.com/?cid=3208413175330260441,,
Coop Supermarkt Zrich Eleven,"Sophie-Taeuber-Strasse 4, Zrich",47.4131828,8.5406746,"['supermarket', 'grocery_or_supermarket', 'food', 'point_of_interest', 'store', 'establishment']",ChIJW_3Lt6mgmkcRZzq9UZyzvMs,8050,https://www.coop.ch/de/standorte/coop-supermarkt-zuerich-eleven/2250_POS,https://maps.google.com/?cid=14680806369288600167,_cid=14680806369288600167,48.095238095238095
Coop Pronto Shop,"Schaffhauserstrasse 499, Zrich",47.4214355,8.5497151,"['supermarket', 'grocery_or_supermarket', 'food', 'point_of_interest', 'store', 'establishment']",ChIJ9VO6QJkKkEcR9pbYaUy0dJQ,8052,https://www.coop-pronto.ch/de/standort/zuerich-seebach/,https://maps.google.com/?cid=10697373255198086902,_cid=10697373255198086902,41.07843137254902
Migros Supermarkt,"Thurgauerstrasse 106, Opfikon",47.4210946,8.5577823,"['grocery_or_supermarket', 'supermarket', 'food', 'point_of_interest', 'store', 'establishment']",ChIJDzSxlnWgmkcRkuKcKvoGFB8,8152,https://filialen.migros.ch/de/migros-supermarkt-opfikon-glattpark,https://maps.google.com/?cid=2239422586236494482,_cid=2239422586236494482,56.84722222222222
Coop Supermarkt Opfikon Lindbergh-Allee,"Boulevard Lilienthal 20, Opfikon",47.4236087,8.5612035,"['supermarket', 'grocery_or_supermarket', 'food', 'point_of_interest', 'store', 'establishment']",ChIJZfcgyXSgmkcRZmwCz57a9lk,8152,https://www.coop.ch/de/standorte/coop-supermarkt-opfikon-lindbergh-allee/4704_POS,https://maps.google.com/?cid=6482609089259138150,_cid=6482609089259138150,42.41558441558441
Piroo Supermarkt,"Boulevard Lilienthal 17, Opfikon",47.4235497,8.5621957,"['grocery_or_supermarket', 'food', 'point_of_interest', 'store', 'establishment']",ChIJEcQNL4uhmkcRtVFwiOh-ANU,8152,,https://maps.google.com/?cid=15348407067265225141,_cid=15348407067265225141,39.22222222222222
ALDI SUISSE - Zurich,"Schrenmoosstrasse 77, Zrich",47.4194699,8.5567393,"['supermarket', 'grocery_or_supermarket', 'food', 'point_of_interest', 'store', 'establishment']",ChIJo_8PBHagmkcRN3TJBmfo0yM,8052,https://www.aldi-suisse.ch/de/,https://maps.google.com/?cid=2581662540606567479,_cid=2581662540606567479,47.84615384615385
Denner Discount,"Thurgauerstrasse 106, Opfikon",47.4211328,8.557648,"['supermarket', 'grocery_or_supermarket', 'food', 'point_of_interest', 'store', 'establishment']",ChIJESWoiHWgmkcRhFcST5U2Aaw,8152,https://www.denner.ch/,https://maps.google.com/?cid=12394247664404944772,_cid=12394247664404944772,41.0281690140845
VOI Migros Partner,"Schfligrabenstrasse 45, Wallisellen",47.41974889999999,8.5974419,"['supermarket', 'bakery', 'grocery_or_supermarket', 'food', 'health', 'point_of_interest', 'store', 'establishment']",ChIJdTvgrs-hmkcRQyrXkGkFtVU,8304,https://filialen.migros.ch/de/voi-voi-wallisellen,https://maps.google.com/?cid=6175848414968228419,_cid=6175848414968228419,46.24358974358975
Volg Rieden,"Riedenerstrasse 81, Wallisellen",47.4185241,8.598109899999999,"['supermarket', 'grocery_or_supermarket', 'food', 'point_of_interest', 'store', 'establishment']",ChIJdToxekmgmkcRhZGz5Nd1QG8,8304,https://www.landizueriunterland.ch/volg-filialen/wallisellen,https://maps.google.com/?cid=8016536906834874757,_cid=8016536906834874757,52.21052631578947
Lidl,"Neue Winterthurerstrasse 2, Wallisellen",47.41237719999999,8.613654499999999,"['supermarket', 'convenience_store', 'grocery_or_supermarket', 'home_goods_store', 'food', 'point_of_interest', 'clothing_store', 'store', 'establishment']",ChIJK6o9b7ChmkcRPkyS4i6sGk0,8304,https://www.lidl.ch/,https://maps.google.com/?cid=5555942407684639806,_cid=5555942407684639806,50.94047619047619
Migros Supermarkt,"Im Zentrum 1, Regensdorf",47.4310112,8.4691587,"['grocery_or_supermarket', 'supermarket', 'food', 'point_of_interest', 'store', 'establishment']",ChIJP9wCHl4LkEcRpeSkgXMSVfE,8105,https://filialen.migros.ch/de/migros-supermarkt-regensdorf-zentrum,https://maps.google.com/?cid=17389825823466644645,_cid=17389825823466644645,46.56944444444444
Coop Supermarkt Zrich Mhlackerstrasse,"Mhlackerstrasse 199, Zrich",47.4255113,8.4969846,"['supermarket', 'grocery_or_supermarket', 'food', 'point_of_interest', 'store', 'establishment']",ChIJRw4SNB0LkEcRWPYV38w7oL8,8046,https://www.coop.ch/de/standorte/coop-supermarkt-zuerich-muehlackerstrasse/4557_POS,https://maps.google.com/?cid=13808102208620066392,_cid=13808102208620066392,47.81944444444444
Coop Supermarkt Glattbrugg Bahnhof,"Europa-Strasse 4, Opfikon",47.4306251,8.5600504,"['supermarket', 'grocery_or_supermarket', 'food', 'point_of_interest', 'store', 'establishment']",ChIJlyRH3gmgmkcRi9bA_jZWBDw,8152,https://www.coop.ch/de/standorte/coop-supermarkt-glattbrugg-bahnhof/4888_POS,https://maps.google.com/?cid=4324676336384792203,_cid=4324676336384792203,44.52873563218391
Coop Supermarkt Opfikon,"Talackerstrasse 68, Opfikon",47.4284888,8.563879499999999,"['supermarket', 'grocery_or_supermarket', 'food', 'point_of_interest', 'store', 'establishment']",ChIJMbmY4gWgmkcRIb56rtzCKPk,8152,https://www.coop.ch/de/standorte/coop-supermarkt-opfikon/1604_POS,https://maps.google.com/?cid=17953814167588355617,_cid=17953814167588355617,37.44871794871795
Albatros Lebensmittel,"Im Dreispitz 31, Regensdorf",47.4374242,8.4642784,"['grocery_or_supermarket', 'food', 'point_of_interest', 'store', 'establishment']",ChIJq3F1d5ALkEcRK72DsClcSEc,8105,,https://maps.google.com/?cid=5136456709140888875,,
Coop Supermarkt Regensdorf Zentrum,"Im Zentrum 1, Regensdorf",47.4313556,8.4691487,"['supermarket', 'grocery_or_supermarket', 'food', 'point_of_interest', 'store', 'establishment']",ChIJP9wCHl4LkEcR5Blke61jVqE,8105,https://www.coop.ch/de/standorte/coop-supermarkt-regensdorf-zentrum/1506_POS,https://maps.google.com/?cid=11625589084854163940,_cid=11625589084854163940,54.47222222222222
Coop Supermarkt Regensdorf Rgi Mrt,"Feldstrasse 2, Regensdorf",47.4374853,8.474880299999999,"['supermarket', 'grocery_or_supermarket', 'food', 'point_of_interest', 'store', 'establishment']",ChIJP9wCHl4LkEcRHBAPVWFcWXI,8105,https://www.coop.ch/de/standorte/coop-supermarkt-regensdorf-raegi-maert/2572_POS,https://maps.google.com/?cid=8239718566359666716,_cid=8239718566359666716,57.30769230769231
migrolino Regensdorf,"Feldstrasse 10, Regensdorf",47.437952,8.473673,"['supermarket', 'grocery_or_supermarket', 'food', 'point_of_interest', 'store', 'establishment']",ChIJM2-B9xQLkEcRWtjxtvzfU1c,8105,http://www.migrolino.ch/,https://maps.google.com/?cid=6292619380860770394,,
Migros Supermarkt,"Wallisellerstrasse 8, Opfikon",47.4342441,8.567730599999999,"['grocery_or_supermarket', 'supermarket', 'food', 'point_of_interest', 'store', 'establishment']",ChIJj1H28AWgmkcR65uWQ3Qlpaw,8152,https://filialen.migros.ch/de/migros-supermarkt-glattbrugg,https://maps.google.com/?cid=12440390726961241067,_cid=12440390726961241067,45.0
Coop Supermarkt Glattbrugg,"Schaffhauserstrasse 124, Opfikon",47.43435179999999,8.5669838,"['supermarket', 'grocery_or_supermarket', 'food', 'point_of_interest', 'store', 'establishment']",ChIJMbmY4gWgmkcRpormKuSjyTs,8152,https://www.coop.ch/de/standorte/coop-supermarkt-glattbrugg/1411_POS,https://maps.google.com/?cid=4308154718924212902,_cid=4308154718924212902,48.19230769230769
migrolino Glattbrugg,"Schaffhauserstrasse 101, Opfikon",47.4330108,8.5646376,"['supermarket', 'grocery_or_supermarket', 'food', 'point_of_interest', 'store', 'establishment']",ChIJO8KFp6AKkEcRXP_OpqCokWs,8152,http://www.migrolino.ch/,https://maps.google.com/?cid=7751161841628151644,_cid=7751161841628151644,21.660714285714285
Denner Discount,"Schaffhauserstrasse 141, Opfikon",47.436237,8.568358,"['supermarket', 'grocery_or_supermarket', 'food', 'point_of_interest', 'store', 'establishment']",ChIJp2-TMgSgmkcRVls7Y61sO88,8152,https://www.denner.ch/,https://maps.google.com/?cid=14932648481426987862,_cid=14932648481426987862,49.84615384615385
Denner Discount,"Areal Sternen, Zrcherstrasse 110, Birmensdorf",47.359685,8.454051,"['supermarket', 'grocery_or_supermarket', 'food', 'point_of_interest', 'store', 'establishment']",ChIJF0thjUUJkEcRI7K0JlSg1K8,8903,https://www.denner.ch/,,,
Migros Take Away,"Giesshbelstrasse 65, Zrich",47.3582147,8.5173974,"['meal_takeaway', 'bakery', 'restaurant', 'food', 'point_of_interest', 'store', 'establishment']",ChIJQ_-nj-0JkEcRsAWWiWpZMNA,8045,https://filialen.migros.ch/de/take-away-zuerich-brunaupark,,,
Migros Restaurant,"Giesshbelstrasse 65, Zrich",47.357909,8.5192228,"['restaurant', 'cafe', 'food', 'point_of_interest', 'establishment']",ChIJbcvO8u0JkEcREEkj4lRXHZs,8045,https://filialen.migros.ch/de/migros-restaurant-zuerich-brunaupark,,,
SportXX,"Brunaupark, Giesshbelstrasse 65, Zrich",47.358242,8.518068999999999,"['bicycle_store', 'point_of_interest', 'clothing_store', 'store', 'establishment']",ChIJWzO81-8JkEcRUA52RV3RXHg,8045,https://www.sportxx.ch/de/cp/store/0150453/sportxx-zuerich-brunaupark?utm_source=GoogleMaps&utm_medium=organic&utm_campaign=Z%C3%BCrich,,,
Denner Discount,"Giesshbelstrasse 65, Zrich",47.358222,8.517876,"['supermarket', 'grocery_or_supermarket', 'food', 'point_of_interest', 'store', 'establishment']",ChIJj0lFi-0JkEcRYhg5KXUZkBE,8045,https://www.denner.ch/,,,
Denner Express,"Forchstrasse 261, Zrich",47.35840169999999,8.5717004,"['supermarket', 'grocery_or_supermarket', 'food', 'point_of_interest', 'store', 'establishment']",ChIJ5XXFnjGnmkcRDBvusWEK2nQ,8032,https://www.denner.ch/,,,
VOI,"Loorenstrasse 35, Zrich",47.35985669999999,8.593812,"['supermarket', 'bakery', 'grocery_or_supermarket', 'food', 'health', 'point_of_interest', 'store', 'establishment']",ChIJ57vsnNOmmkcRJbXCUQ9vYSg,8053,https://filialen.migros.ch/de/voi-voi-zuerich-witikon,,,
Denner Discount,"Witikonerstrasse 299, Einkaufszentrum Witikon, Zrich",47.3584599,8.5862955,"['supermarket', 'grocery_or_supermarket', 'food', 'point_of_interest', 'store', 'establishment']",ChIJL6QEBCqnmkcRwHLBd3phqYw,8053,https://www.denner.ch/,,,
migrolino Zrich Birmensdorferstrasse,"Birmensdorferstrasse 517, Zrich",47.36741079999999,8.494410199999999,"['supermarket', 'grocery_or_supermarket', 'food', 'point_of_interest', 'store', 'establishment']",ChIJIScCroEJkEcRbsFzBtV4S_0,8055,http://www.migrolino.ch/,,,
Denner Discount,"Birmensdorferstrasse 406, Zrich",47.369243,8.5030427,"['supermarket', 'grocery_or_supermarket', 'food', 'point_of_interest', 'store', 'establishment']",ChIJ1-qbi4cJkEcRC9R39anhyg4,8055,https://www.denner.ch/,,,
Migros Take Away,"Birmensdorferstrasse 140, Zrich",47.3700513,8.520220199999999,"['meal_takeaway', 'bakery', 'restaurant', 'food', 'point_of_interest', 'store', 'establishment']",ChIJfSSTTR4KkEcR2tfL1h1o0rw,8003,https://filialen.migros.ch/de/take-away-zuerich-schmiede-wiedikon,,,
Migros Bank,"Stockerstrasse 41, Zrich",47.367501,8.534496800000001,"['bank', 'finance', 'point_of_interest', 'establishment']",ChIJez3vAQIKkEcR2yCwYdhHFTw,8002,https://www.migrosbank.ch/de/standorte.html/migros-bank-niederlassung-zuerich-stockerstrasse,,,
Migros Fitnesspark Stockerhof,"Dreiknigstrasse 31A, Zrich",47.3663794,8.535049200000001,"['spa', 'restaurant', 'food', 'health', 'point_of_interest', 'establishment']",ChIJ-bbyT_8JkEcR2Db624_zfjk,8002,https://www.fitnesspark.ch/stockerhof/,,,
Migros Take Away,"Kreuzpl. 20, Zrich",47.3646895,8.553918699999999,"['meal_takeaway', 'bakery', 'restaurant', 'food', 'point_of_interest', 'store', 'establishment']",ChIJyzwPOVOnmkcRZzVfO0PRE5I,8008,https://filialen.migros.ch/de/take-away-zuerich-kreuzplatz,,,
Migros Florissimo,"Kreuzpl. 20, Zrich",47.3647559,8.5538227,"['florist', 'point_of_interest', 'store', 'establishment']",ChIJh-lTWSunmkcRoavAYlOpPtk,8008,https://filialen.migros.ch/de/florissimo-zuerich-kreuzplatz,,,
Migros Restaurant,"Falkenstrasse 19 - 21, Zrich",47.3654649,8.5479404,"['restaurant', 'cafe', 'food', 'point_of_interest', 'establishment']",ChIJe6LeMFOnmkcR2cOwloDyUaA,8008,https://filialen.migros.ch/de/migros-restaurant-zuerich-stadelhofen,,,
Denner Discount,"Bockhornstrasse 1, Zrich",47.3759232,8.4840027,"['supermarket', 'grocery_or_supermarket', 'food', 'point_of_interest', 'store', 'establishment']",ChIJsfgqtNALkEcR9QRP5wFXWfw,8047,https://www.denner.ch/,,,
Migros Restaurant,"Birmensdorferstrasse 320, Zrich",47.3700013,8.5085447,"['restaurant', 'cafe', 'food', 'point_of_interest', 'establishment']",ChIJ5TpvcCcKkEcRteLYxEwLus8,8055,https://filialen.migros.ch/de/migros-restaurant-zuerich-wiedikon-m-maert,,,
Denner Discount,"Birmensdorferstrasse 320, Zrich",47.3700752,8.5087124,"['supermarket', 'grocery_or_supermarket', 'food', 'point_of_interest', 'store', 'establishment']",ChIJfRXhcycKkEcRLB85VF63gpI,8055,https://www.denner.ch/,,,
Migros Take Away,"Wengistrasse 7, Zrich",47.3749042,8.5231324,"['meal_takeaway', 'bakery', 'restaurant', 'food', 'point_of_interest', 'store', 'establishment']",ChIJfSSTTR4KkEcReDZ-kLXar9A,8004,https://filialen.migros.ch/de/take-away-zuerich-wengihof,,,
Denner Express,"Wengistrasse 7, Zrich",47.37488219999999,8.5234249,"['supermarket', 'grocery_or_supermarket', 'food', 'point_of_interest', 'store', 'establishment']",ChIJ_cf9chkKkEcRLEb_m-Msmqw,8004,https://www.denner.ch/,,,
Billett-Service Migros,"Lwenstrasse 35, Zrich",47.3752656,8.536159999999999,"['grocery_or_supermarket', 'food', 'point_of_interest', 'store', 'establishment']",ChIJwdBe3AUKkEcRCwqNrjXlXBM,8001,,,,
Migros Take Away,"Lwenstrasse 31-35, Zrich",47.37538319999999,8.5360797,"['meal_takeaway', 'bakery', 'restaurant', 'food', 'point_of_interest', 'store', 'establishment']",ChIJicVfxQUKkEcRECe44SXXvac,8001,https://filialen.migros.ch/de/take-away-zuerich-city,,,
melectronics,"Lwenstrasse 31-35, Zrich",47.37538319999999,8.5360797,"['movie_rental', 'electronics_store', 'home_goods_store', 'point_of_interest', 'store', 'establishment']",ChIJebvE0AUKkEcRKLZdm13vdag,8001,https://www.melectronics.ch/de/cp/store/0150461/melectronics-zuerich-city?utm_source=GoogleMaps&utm_medium=organic&utm_campaign=Z%C3%BCrich,,,
SUN STORE Migros City Zrich,"Lwenstrasse 31/35, Zrich",47.3754389,8.5360627,"['pharmacy', 'drugstore', 'health', 'point_of_interest', 'clothing_store', 'store', 'establishment']",ChIJicVfxQUKkEcRLuwsEeDJy0s,8001,https://www.sunstore.ch/fr?utm_source=google&utm_medium=organic&utm_campaign=googlemybusiness&utm_term=sunstore-zuerich-migros-city,,,
Migros Bank,"Seidengasse 12, Zrich",47.37503599999999,8.537648299999999,"['bank', 'finance', 'point_of_interest', 'establishment']",ChIJ72sra1GgmkcRrf7kZ4KW75U,8001,https://www.migrosbank.ch/de/standorte.html/migros-bank-niederlassung-zuerich,,,
Parkgarage Migros City Lwenstrasse,"Migros Supermarkt, Lwenstrasse 35, Zrich",47.3751737,8.5362066,"['parking', 'point_of_interest', 'establishment']",ChIJuz1DgSgLkEcRB3wqUyz6bZw,8001,https://www.migros-city.ch/de/services.html,,,
Migros Take Away/Gourmessa,"Rathausbrcke, Zrich",47.37172109999999,8.5421903,"['meal_takeaway', 'bakery', 'restaurant', 'food', 'point_of_interest', 'store', 'establishment']",ChIJe__s_qmgmkcR-dhmuVeEG_w,8001,,,,
Migros-Pensionskasse,"In der Fadmatt 42, Urdorf",47.3811673,8.429512299999999,"['point_of_interest', 'establishment']",ChIJBwk03hsMkEcRkyVHucc4pcw,8902,,,,
Migros Take Away,"Sihlpassage, Zrich",47.3782094,8.536004499999999,"['meal_takeaway', 'bakery', 'restaurant', 'food', 'point_of_interest', 'store', 'establishment']",ChIJH7m2i0ILkEcRZpaPlFz99RY,8004,https://filialen.migros.ch/de/take-away-zuerich-hb-sihlquai,,,
Migros,"Bahnhofstrasse, Zrich",47.3784278,8.5402537,"['meal_takeaway', 'bakery', 'restaurant', 'food', 'point_of_interest', 'store', 'establishment']",ChIJ3aef-ggKkEcR-pa3dFA3DDY,8001,https://filialen.migros.ch/de/take-away-zuerich-hauptbahnhof,,,
Denner Discount,"Birmensdorferstrasse 79 Einkaufszentrum Spitzacker, Urdorf",47.3850777,8.422424,"['supermarket', 'grocery_or_supermarket', 'food', 'point_of_interest', 'store', 'establishment']",ChIJnxYqzCIMkEcR6UvsYaJGSqg,8902,https://www.denner.ch/,,,
Migros Take Away,"Altstetterstrasse 145, Zrich",47.3884037,8.4871042,"['meal_takeaway', 'bakery', 'restaurant', 'food', 'point_of_interest', 'store', 'establishment']",ChIJcRmrZcgLkEcRMoDp4n8v6ZE,8048,https://filialen.migros.ch/de/take-away-zuerich-altstetten-neumarkt,,,
melectronics,"Neumarkt Altstetten, Altstetterstrasse 145, Zrich",47.388346,8.487036,"['movie_rental', 'electronics_store', 'home_goods_store', 'point_of_interest', 'store', 'establishment']",ChIJN4HxZMgLkEcRSIgkuX3CQcA,8048,https://www.melectronics.ch/de/cp/store/0150478/melectronics-zuerich-altstetten-neumarkt?utm_source=GoogleMaps&utm_medium=organic&utm_campaign=Z%C3%BCrich,,,
Migros Bank,"Badenerstrasse 670, Zrich",47.3877036,8.4870565,"['bank', 'finance', 'point_of_interest', 'establishment']",ChIJAcyhicgLkEcRSE-n1yOXIjI,8048,https://www.migrosbank.ch/de/standorte.html/migros-bank-niederlassung-zuerich-altstetten,,,
Denner Discount,"im OG, Altstetterstrasse 145, Zrich",47.3884662,8.486958999999999,"['supermarket', 'grocery_or_supermarket', 'food', 'point_of_interest', 'store', 'establishment']",ChIJaftNnMgLkEcRZBKdvF_jL_8,8048,https://www.denner.ch/,,,
Migros Restaurant,"Altstetterstrasse 145, Zrich",47.3883843,8.4874986,"['restaurant', 'cafe', 'food', 'point_of_interest', 'establishment']",ChIJqSapZ8gLkEcRuiIx7ezjkxU,8048,https://filialen.migros.ch/de/migros-restaurant-zuerich-altstetten-neumarkt,,,
Genossenschaft Migros Zrich,"Pfingstweidstrasse 101, Zrich",47.3901134,8.5073659,"['point_of_interest', 'establishment']",ChIJOc3UyUkKkEcR-D_lCihDIYw,8005,,,,
Migros Take Away,"Pfingstweidstrasse 101, Zrich",47.38985479999999,8.5073829,"['meal_takeaway', 'bakery', 'restaurant', 'food', 'point_of_interest', 'store', 'establishment']",ChIJbcvO8u0JkEcRHoX-ldCMcaI,8005,https://filialen.migros.ch/de/take-away-zuerich-herdern,,,
Migros Museum fr Gegenwartskunst,"Limmatstrasse 270, Zrich",47.3892851,8.5248797,"['tourist_attraction', 'museum', 'point_of_interest', 'establishment']",ChIJK8Ni7moKkEcRTqzHs_nJYu0,8005,http://www.migrosmuseum.ch/,,,
Migros-Genossenschafts-Bund Group IT,"Heinrichstrasse 216, Zrich",47.3883466,8.5243445,"['point_of_interest', 'establishment']",ChIJldV_yGoKkEcRI4Mzzr6LPmQ,8005,,,,
Arbeit Migros,"Josefstrasse 212, Zrich",47.38707290000001,8.5231174,"['point_of_interest', 'establishment']",ChIJidhu1vYLkEcRmmv6yyMb5zg,8005,,,,
Migros-Magazin,"Limmatstrasse 152, Zrich",47.38537609999999,8.5310691,"['store', 'point_of_interest', 'establishment']",ChIJV2Uc4xIKkEcRQfKaqnSZmLE,8005,,,,
Migros-Genossenschafts-Bund,"Limmatstrasse 152, Zrich",47.3851138,8.5312816,"['point_of_interest', 'establishment']",ChIJV2Uc4xIKkEcRL8nNIyoKzyw,8005,https://www.migros.ch/de/unternehmen.html,,,
Migusto - die Kochplattform der Migros,"Limmatstrasse 152, Zrich",47.3857136,8.5321936,"['food', 'point_of_interest', 'establishment']",ChIJISgOWhUKkEcRjrG05hbpja4,8031,http://www.migusto.ch/,,,
migrolino Zrich Sihlquai,"Sihlquai 155, Zrich",47.3860452,8.5319444,"['supermarket', 'grocery_or_supermarket', 'food', 'point_of_interest', 'store', 'establishment']",ChIJvxOlvAgKkEcRDTvZPZ3agfY,8005,http://www.migrolino.ch/,,,
Klubschule Migros,"Limmatstrasse 152, Zrich",47.38549,8.531846,"['gym', 'health', 'point_of_interest', 'establishment']",ChIJV2Uc4xIKkEcRaS2VoTAJ4a4,8005,https://www.klubschule.ch/Standorte/Zuerich/Zuerich/Zuerich-Limmatplatz,,,
melectronics,"Limmatplatz, Limmatstrasse 152, Zrich",47.3852972,8.5313574,"['movie_rental', 'electronics_store', 'home_goods_store', 'point_of_interest', 'store', 'establishment']",ChIJV2Uc4xIKkEcRmX1jLs90oSI,8005,https://www.melectronics.ch/de/cp/store/0150475/melectronics-zuerich-limmatplatz?utm_source=GoogleMaps&utm_medium=organic&utm_campaign=Z%C3%BCrich,,,
Migros Take Away,"Winterthurerstrasse 2, Zrich",47.3859051,8.548694099999999,"['meal_takeaway', 'bakery', 'restaurant', 'food', 'point_of_interest', 'store', 'establishment']",ChIJrVE-hJ-gmkcRpg2TbFxvL68,8006,https://filialen.migros.ch/de/take-away-zuerich-rigiplatz,,,
VOI,"Grnauring 37, Zrich",47.3960893,8.4864944,"['supermarket', 'bakery', 'grocery_or_supermarket', 'food', 'health', 'point_of_interest', 'store', 'establishment']",ChIJPT0XO7oLkEcR5cNBBVyfvJE,8064,https://filialen.migros.ch/de/voi-voi-zuerich-gruenau,,,
Denner Express,"Lindenpl. 4, Zrich",47.3872504,8.4860262,"['supermarket', 'grocery_or_supermarket', 'food', 'point_of_interest', 'store', 'establishment']",ChIJK_lNnMgLkEcRD55AmaRKXCI,8048,https://www.denner.ch/,,,
Migros Club Schools Zurich Altstetten,"Vulkanpl. 8, Zrich",47.3917745,8.4919014,"['gym', 'health', 'point_of_interest', 'establishment']",ChIJYW8RdLcLkEcRoPl_oX59AiA,8048,https://www.klubschule.ch/Standorte/Zuerich/Zuerich/Zuerich-Altstetten,,,
Parkplatz Migros,"Pfingstweidstrasse 101, Zrich",47.3902727,8.507417499999999,"['parking', 'point_of_interest', 'establishment']",ChIJBw5DbgILkEcR8zD7S2M1B6o,8005,http://migros.ch/,,,
Ausgleichskasse der Migros Betriebe,"Wiesenstrasse 15, Schlieren",47.3912899,8.508289099999999,"['point_of_interest', 'establishment']",ChIJVVVVVUgKkEcRtcFbrPcMSTI,8952,https://akmigros.ch/,,,
Deli Factory - Lebensmittelproduktion der Migros Zrich,"Pfingstweidstrasse 101 Betriebszentrale Herdern, Zrich",47.3902727,8.507417499999999,"['food', 'point_of_interest', 'establishment']",ChIJtYZdJNgLkEcROZt6VPJVXZQ,8005,https://www.migros.ch/de/genossenschaften/migros-zuerich.html,,,
Migros-Pensionskasse,"Wiesenstrasse 15, Schlieren",47.3994981,8.442530999999999,"['point_of_interest', 'establishment']",ChIJyzjxpscLkEcRvg1svYofRT8,8952,http://www.mpk.ch/,,,
Migros-Pensionskasse,"Gterstrasse 26, Schlieren",47.3985576,8.442853,"['local_government_office', 'point_of_interest', 'establishment']",ChIJBZ4OiHEMkEcRZeQNq-ZEd9s,8952,https://www.mpk.ch/,,,
Denner Express,"Gterstrasse 4/6, Schlieren",47.39890030000001,8.446334199999999,"['supermarket', 'grocery_or_supermarket', 'food', 'point_of_interest', 'store', 'establishment']",ChIJ6044WzcNkEcR2X3vRE8L6Sw,8952,https://www.denner.ch/,,,
Denner Express,"Hofwiesenstrasse 135, Zrich",47.3990363,8.5325936,"['supermarket', 'grocery_or_supermarket', 'food', 'point_of_interest', 'store', 'establishment']",ChIJ3cTFzWUKkEcRG6wbHPiptdE,8057,https://www.denner.ch/,,,
Migros Bank Bancomat,"Neugutstrasse 83, Dbendorf",47.4011879,8.6034703,"['atm', 'finance', 'point_of_interest', 'establishment']",ChIJjQu5ggChmkcRPGrBxMup-vw,8600,https://www.migrosbank.ch/de/standorte.html/migros-bank-bancomat-duebendorf-micasa,,,
Micasa,"Neugutstrasse 83, Dbendorf",47.4009022,8.603648699999999,"['furniture_store', 'home_goods_store', 'point_of_interest', 'store', 'establishment']",ChIJBaFAnAChmkcRVwRI4F1c0Vo,8600,https://www.micasa.ch/de/cp/store/0150424/micasa-duebendorf-hochbord-nord?utm_source=GoogleMaps&utm_medium=organic&utm_campaign=D%C3%BCbendorf,,,
Denner Discount,"Wallisellenstrasse 17, Dbendorf",47.39856349999999,8.618088799999999,"['supermarket', 'grocery_or_supermarket', 'food', 'point_of_interest', 'store', 'establishment']",ChIJD6Jf4CCgmkcRfEmoZUgdVcc,8600,https://www.denner.ch/,,,
Denner Discount,"Ladengasse 1, Oberengstringen",47.4085506,8.4635141,"['supermarket', 'grocery_or_supermarket', 'food', 'point_of_interest', 'store', 'establishment']",ChIJc-rMuIMLkEcRPrsfwWMlYpk,8102,https://www.denner.ch/,,,
Denner Discount,"Regensdorferstrasse 16, Einkaufszentrum, Zrich",47.40328299999999,8.498274499999999,"['supermarket', 'grocery_or_supermarket', 'food', 'point_of_interest', 'store', 'establishment']",ChIJJY0cF6wLkEcRwRRNnFWifcY,8049,https://www.denner.ch/,,,
melectronics,"Zentrum Neumarkt Hofwiesenstrasse 350-354, Zrich",47.41048319999999,8.542931099999999,"['movie_rental', 'electronics_store', 'home_goods_store', 'point_of_interest', 'store', 'establishment']",ChIJKdqCDoYKkEcRdR-uAy-MqBo,8050,https://www.melectronics.ch/de/cp/store/0150426/melectronics-zuerich-oerlikon-neumarkt?utm_source=GoogleMaps&utm_medium=organic&utm_campaign=Z%C3%BCrich,,,
Migros Take Away,"Hofwiesenstrasse 350/354, Zrich",47.4106762,8.5429459,"['meal_takeaway', 'bakery', 'restaurant', 'food', 'point_of_interest', 'store', 'establishment']",ChIJKdqCDoYKkEcRtLNqU8iyiL0,8050,https://filialen.migros.ch/de/take-away-zuerich-oerlikon-neumarkt,,,
Denner Discount,"Schwamendingenstrasse 24, Zrich",47.40736709999999,8.5484298,"['supermarket', 'grocery_or_supermarket', 'food', 'point_of_interest', 'store', 'establishment']",ChIJP0276IAKkEcR589eQeHUAxM,8050,https://www.denner.ch/,,,
Migros Restaurant,"Winterthurerstrasse 524, Zrich",47.4040308,8.5730192,"['restaurant', 'cafe', 'food', 'point_of_interest', 'establishment']",ChIJz_0of4qgmkcRir2eQjzKYEc,8051,https://filialen.migros.ch/de/migros-restaurant-zuerich-schwamendingen,,,
Denner Discount,"Winterthurerstrasse 549, Zrich",47.4045485,8.574454,"['supermarket', 'grocery_or_supermarket', 'food', 'point_of_interest', 'store', 'establishment']",ChIJf_5FPmCgmkcRFaTs-HAt1u0,8051,https://www.denner.ch/,,,
k kiosk,"Winterthurerstrasse 524, Zrich",47.4040381,8.5728039,"['convenience_store', 'liquor_store', 'restaurant', 'food', 'point_of_interest', 'store', 'establishment']",ChIJxXo3blShmkcR8kls1tQyogY,8051,https://www.kkiosk.ch/,,,
Migros Florissimo Glattzentrum,"Einkfauszentrum Glatt, Neue Winterthurerstrasse 99, Glattzenzentrum",47.4087244,8.5958955,"['florist', 'point_of_interest', 'store', 'establishment']",ChIJCWQ62FOgmkcR7d5vQ-sRffw,8301,,,,
melectronics,"Wallisellen - Glattzentrum, Neue Winterthurerstrasse 99, Wallisellen",47.40884399999999,8.595373,"['movie_rental', 'electronics_store', 'home_goods_store', 'point_of_interest', 'store', 'establishment']",ChIJ-yJ3flGgmkcRht0jI_L82ss,8304,https://www.melectronics.ch/de/cp/store/0150450/melectronics-wallisellen-glattzentrum?utm_source=GoogleMaps&utm_medium=organic&utm_campaign=Wallisellen,,,
Migros Take Away,"Neue Winterthurerstrasse 99, Wallisellen",47.4087191,8.5962848,"['meal_takeaway', 'bakery', 'restaurant', 'food', 'point_of_interest', 'store', 'establishment']",ChIJYfpdXlGgmkcRGh4gncdWmRE,8304,https://filialen.migros.ch/de/take-away-wallisellen-glattzentrum,,,
Denner Discount,"Neue Winterthurerstrasse 99, Wallisellen",47.4078875,8.5965549,"['supermarket', 'grocery_or_supermarket', 'food', 'point_of_interest', 'store', 'establishment']",ChIJpS1s6VOgmkcRQsnWREZLvDY,8304,https://www.denner.ch/,,,
Migros,"Neue Winterthurerstrasse 99, Wallisellen",47.4088791,8.5953754,"['restaurant', 'cafe', 'food', 'point_of_interest', 'establishment']",ChIJ4-ZZcvo5jkcRHxcBBrl6WOc,8304,https://filialen.migros.ch/de/migros-restaurant-wallisellen-glattzentrum,,,
Migros Bank Bancomat,"Glattzentrum, Wallisellen",47.40837,8.59568,"['atm', 'finance', 'point_of_interest', 'establishment']",ChIJC24Qf7KhmkcRPr_4SpvtVm8,8304,https://www.migrosbank.ch/de/standorte.html/migros-bank-bancomat-wallisellen-glattzentrum,,,
Do it + Garden,"Neue Winterthurerstrasse 99, Wallisellen",47.4086927,8.5963592,"['hardware_store', 'furniture_store', 'home_goods_store', 'point_of_interest', 'store', 'establishment']",ChIJYfpdXlGgmkcRHI7YmwIdZTw,8304,https://www.doitgarden.ch/de/cp/store/0150456/do-it-garden-wallisellen-glattzentrum?utm_source=GoogleMaps&utm_medium=organic&utm_campaign=Wallisellen,,,
Migros-Pensionskasse,"Max Gublerstrasse 29, Unterengstringen",47.4101063,8.4541135,"['transit_station', 'point_of_interest', 'establishment']",ChIJRT_YCX8MkEcRX7907Qv5UV4,8103,,,,
Denner Discount,"Regensbergstrasse 309, Zrich",47.4114294,8.5265717,"['supermarket', 'grocery_or_supermarket', 'food', 'point_of_interest', 'store', 'establishment']",ChIJy1mGYvQKkEcRXIoQm66sEwQ,8050,https://www.denner.ch/,,,
Migros Bank,"Nansenstrasse 21, Zrich",47.4103037,8.5441406,"['bank', 'finance', 'point_of_interest', 'establishment']",ChIJQS7Ze4YKkEcREX_xCYr2Uos,8050,https://www.migrosbank.ch/de/standorte.html/migros-bank-niederlassung-zuerich-oerlikon,,,
Klubschule Migros Zrich Oerlikon,"Hofwiesenstrasse 350, Zrich",47.4104981,8.5425907,"['gym', 'health', 'point_of_interest', 'establishment']",ChIJKdqCDoYKkEcRB5PfNMJWa8Q,8050,https://www.klubschule.ch/zuerich-oerlikon,,,
migrolino Opfikon,"Hagenholzstrasse 119, Kreis 11",47.4161299,8.5637594,"['supermarket', 'grocery_or_supermarket', 'food', 'point_of_interest', 'store', 'establishment']",ChIJMWAyXAgKkEcRjxhUAA0yrmM,8152,http://www.migrolino.ch/,,,
Migros Bank Bancomat,"Industriestrasse 17, Wallisellen",47.4129094,8.584374799999999,"['atm', 'finance', 'point_of_interest', 'establishment']",ChIJw7qzPb2hmkcROj7vXHcMOog,8304,https://www.migrosbank.ch/de/standorte.html/migros-bank-bancomat-wallisellen-gabs,,,
Migros Bank,"Richtiarkade 13, Wallisellen",47.4104542,8.5955938,"['bank', 'finance', 'point_of_interest', 'establishment']",ChIJHcQ32FOgmkcR61z40Wsu_is,8304,https://www.migrosbank.ch/de/standorte.html/migros-bank-niederlassung-wallisellen,,,
SportXX,"Neue Winterthurerstrasse 99, Wallisellen",47.40845340000001,8.5960556,"['bicycle_store', 'point_of_interest', 'clothing_store', 'store', 'establishment']",ChIJYfpdXlGgmkcR0a1irOroTSk,8304,https://www.sportxx.ch/de/cp/store/0150457/sportxx-wallisellen-glattzentrum?utm_source=GoogleMaps&utm_medium=organic&utm_campaign=Wallisellen,,,
Migros-Pensionskasse,"Guyerstrasse 2, Wallisellen",47.4177905,8.5991241,"['jewelry_store', 'electronics_store', 'point_of_interest', 'clothing_store', 'store', 'establishment']",ChIJ__AT3UugmkcRwiHSWCM1IqE,8304,,,,
Migros Restaurant,"Jonas-Furrer-Strasse 21, Zrich",47.4202075,8.5086864,"['restaurant', 'cafe', 'food', 'point_of_interest', 'establishment']",ChIJw6rfm-IKkEcRWmkqReaIg90,8046,https://filialen.migros.ch/de/migros-restaurant-zuerich-affoltern,,,
migrolino Zrich Furttal,"Wehntalerstrasse 586C, Zrich",47.4209373,8.5026301,"['supermarket', 'grocery_or_supermarket', 'food', 'point_of_interest', 'store', 'establishment']",ChIJa1C_eB0LkEcR8N8Lhtc8cYI,8046,http://www.migrolino.ch/,,,
Denner Discount,"In Bden 174, Zrich",47.4206343,8.5082811,"['supermarket', 'grocery_or_supermarket', 'food', 'point_of_interest', 'store', 'establishment']",ChIJJ627nuIKkEcRpmltSqueC-w,8046,https://www.denner.ch/,,,
DROPA Drogerie Apotheke Zrich-Affoltern,"Migros Einkaufszentrum, In Bden 174, Zrich",47.4202047,8.5081692,"['pharmacy', 'drugstore', 'health', 'point_of_interest', 'store', 'establishment']",ChIJBU26nuIKkEcRnUEG6uo-kjM,8046,https://dropa.ch/standorte/dropa-drogerie-apotheke-zuerich-affoltern?utm_source=gmb&utm_medium=yext,,,
migrolino Zrich Thurgauerstrasse,"Thurgauerstrasse 100, Zrich",47.41979689999999,8.5563336,"['supermarket', 'grocery_or_supermarket', 'food', 'point_of_interest', 'store', 'establishment']",ChIJYYNzAJ4KkEcRp5Uxhi6s6U0,8052,http://www.migrolino.ch/,,,
Denner Discount,"Schaffhauserstrasse 491, Zrich",47.4211483,8.549409599999999,"['supermarket', 'grocery_or_supermarket', 'food', 'point_of_interest', 'store', 'establishment']",ChIJuXZxaJkKkEcRRXuwX5NEp2c,8052,https://www.denner.ch/,,,
Migros Fitnesspark Glattpark,"Thurgauerstrasse 106, Opfikon",47.4211435,8.5577185,"['spa', 'gym', 'health', 'point_of_interest', 'establishment']",ChIJESWoiHWgmkcRkMk3w5ZWAG8,8152,https://www.fitnesspark.ch/glattpark/,,,
Migros Take Away,"Im Zentrum 1, Regensdorf",47.4313251,8.4691306,"['meal_takeaway', 'bakery', 'restaurant', 'food', 'point_of_interest', 'store', 'establishment']",ChIJBQr4910LkEcRTo0XjDYSiRg,8105,https://filialen.migros.ch/de/take-away-regensdorf-zentrum-2,,,
Migros Fitnesspark Regensdorf,"Im Zentrum 3, Regensdorf",47.4310145,8.4685033,"['spa', 'gym', 'health', 'point_of_interest', 'establishment']",ChIJP9wCHl4LkEcRd7yUmugVPZM,8105,https://www.fitnesspark.ch/regensdorf/,,,
Migros Florissimo - Seebach,"Schaffhauserstrasse 470, Zrich",47.419415,8.5481926,"['florist', 'point_of_interest', 'store', 'establishment']",ChIJXb2axpsKkEcRJyxsxiOeWy8,8052,http://migros.ch/,,,
Denner Express,"Glattalstrasse 76, Zrich",47.4272499,8.5467359,"['supermarket', 'grocery_or_supermarket', 'food', 'point_of_interest', 'store', 'establishment']",ChIJB4aGzaIKkEcRQmQOUZaAvIo,8052,https://www.denner.ch/,,,
Genossenschaft Migros Zrich,"Industriestrasse 20, Opfikon",47.4300927,8.5577039,"['point_of_interest', 'establishment']",ChIJkW7I6LuhmkcRIZMzr129BtY,8152,,,,
Denner Partner,"Wallisellerstrasse 114/116, Opfikon",47.428244,8.573966,"['supermarket', 'grocery_or_supermarket', 'food', 'point_of_interest', 'store', 'establishment']",ChIJPeETgBGgmkcRGs13AIksGdM,8152,https://www.denner.ch/,,,
Migros Restaurant,"Im Zentrum 1, Regensdorf",47.4314749,8.4685519,"['restaurant', 'food', 'point_of_interest', 'establishment']",ChIJqZHBX2cLkEcR_-eTgvHrM54,8105,,,,
Denner Discount,"Im Zentrum 1, Regensdorf",47.4310757,8.4696723,"['supermarket', 'grocery_or_supermarket', 'food', 'point_of_interest', 'store', 'establishment']",ChIJEftGgF0LkEcRWcqt67mNHgc,8105,https://www.denner.ch/,,,
migrolino Regensdorf,"Feldstrasse 6, Regensdorf",47.437556,8.474373,"['supermarket', 'grocery_or_supermarket', 'food', 'point_of_interest', 'store', 'establishment']",ChIJsTK1AFsLkEcR3jewM_rDgd0,8105,http://www.migrolino.ch/,,,
Migros Holidays / Vacances Migros,"Sgereistrasse 20, Opfikon",47.4317568,8.5599395,"['travel_agency', 'point_of_interest', 'establishment']",ChIJGxVfgKcKkEcR-caSMk92IjM,8152,https://www.migros-ferien.ch/,,,
migrolino fresh Glattbrugg,"Europa-Strasse 3, Opfikon",47.4308194,8.5595076,"['supermarket', 'grocery_or_supermarket', 'food', 'point_of_interest', 'store', 'establishment']",ChIJKRsyHU8LkEcREEQrcIAb0ic,8152,http://www.migrolino.ch/,,,
Coop,"Zrcherstrasse 11, Birmensdorf",47.35413639999999,8.436395599999999,"['shopping_mall', 'point_of_interest', 'establishment']",ChIJl52AiuIPkEcRi4moAUAhYNI,8903,,,,
Coop Pronto Shop mit Tankstelle,"Zrcherstrasse 110/112, Birmensdorf",47.3594247,8.453512900000002,"['gas_station', 'supermarket', 'grocery_or_supermarket', 'food', 'point_of_interest', 'store', 'establishment']",ChIJu-tIjUUJkEcRW4pEeesOZj8,8903,https://www.coop-pronto.ch/de/standort/birmensdorf/,,,
Coop Mineraloel AG,"Zrcherstrasse 108, Birmensdorf",47.3595815,8.453398199999999,"['store', 'point_of_interest', 'establishment']",ChIJnz8G9UUJkEcRZBnLOItZd6g,8903,,,,
Coop Vitality Zrich Sihl City,"Kalanderpl. 1, Zrich",47.3581442,8.5225083,"['pharmacy', 'health', 'point_of_interest', 'store', 'establishment']",ChIJWzO81-8JkEcREO-U8fsZT-4,8045,https://www.coopvitality.ch/de/4118,,,
Coop Supermarkt Zrich Enge Bahnhof,"Tessinerpl. 10, Zrich",47.3644302,8.530957899999999,"['supermarket', 'grocery_or_supermarket', 'food', 'point_of_interest', 'store', 'establishment']",ChIJd6HCBvkJkEcR-p95T4wTZsw,8002,https://www.coop.ch/de/standorte/coop-supermarkt-zuerich-enge-bahnhof/5447_POS,,,
Coop Tankstelle,"Zrcherstrasse 108, Birmensdorf",47.35957,8.453287,"['gas_station', 'point_of_interest', 'establishment']",ChIJb3qq9UUJkEcR9i4Y-qfA7wo,8903,http://coop-tankstelle.slue.io/,,,
Coop City Zrich Bellevue,"Theaterstrasse 18, Zrich",47.367271,8.5461079,"['department_store', 'point_of_interest', 'store', 'establishment']",ChIJC3cvW6ugmkcRIdOfNkdNiHE,8001,https://www.coop.ch/de/services/standorte-und-oeffnungszeiten/detail.html/2624/,,,
Coop Restaurant Zrich Bellevue,"Theaterstrasse 18, Zrich",47.367271,8.5461079,"['restaurant', 'food', 'point_of_interest', 'establishment']",ChIJt3cvW6ugmkcR8lFcEpjr-UU,8001,https://www.coop.ch/de/services/standorte-und-oeffnungszeiten/detail.html/2625/,,,
Coop Vitality Wiedikon,"Birmensdorferstrasse 200, Zrich",47.3707958,8.5160521,"['pharmacy', 'health', 'point_of_interest', 'store', 'establishment']",ChIJDbn4NCAKkEcR2YMLsqxqjCY,8003,https://www.coopvitality.ch/de/4547,,,
Coop Pronto Shop,"Badenerstrasse 120, Zrich",47.374424,8.5237379,"['supermarket', 'grocery_or_supermarket', 'food', 'point_of_interest', 'store', 'establishment']",ChIJe49XbxkKkEcRUeDMJLBF5V4,8004,https://www.coop-pronto.ch/de/standort/zuerich-badenerstrasse-120/,,,
Coop Pronto Shop,"Lwenstrasse 7, Zrich",47.3733679,8.534488,"['supermarket', 'grocery_or_supermarket', 'food', 'point_of_interest', 'store', 'establishment']",ChIJsyElQgQKkEcRb91g8gMMjtQ,8001,https://www.coop-pronto.ch/de/standort/zuerich-loewenstrasse/,,,
Coop Pronto Shop  Zrich Lwenstrasse,"Lwenstrasse 9, Zrich",47.3733847,8.534583300000001,"['gas_station', 'point_of_interest', 'establishment']",ChIJ_ze2QQQKkEcROVLuAMdqkog,8001,http://www.coop.ch/,,,
Coop Restaurant Zrich St. Annahof,"Bahnhofstrasse 57, Zrich",47.372882,8.538064199999999,"['restaurant', 'food', 'point_of_interest', 'establishment']",ChIJgcBmwAYKkEcRnuVcVKVsDYY,8001,https://www.coop.ch/de/services/standorte-und-oeffnungszeiten/detail.html/2083/,,,
Coop ToGo Zrich Stadelhofen,"Stadelhoferstrasse 8, Zrich",47.366583,8.548437999999999,"['meal_takeaway', 'restaurant', 'food', 'point_of_interest', 'establishment']",ChIJ24iyO_mZmkcRHYwx0uUxRV0,8001,https://www.coop.ch/de/services/standorte-und-oeffnungszeiten/detail.html/5222/,,,
Coop Vitality Zrich Bahnhofstr.,"Bahnhofstrasse 81, Zrich",47.3759368,8.5390692,"['pharmacy', 'health', 'point_of_interest', 'store', 'establishment']",ChIJ_9CFPAYKkEcRev3LF_UhUX4,8001,https://www.coopvitality.ch/de/3996,,,
Coop ToGo Zrich City St. Annahof,"Bahnhofstrasse 57, Zrich",47.372882,8.538064199999999,"['meal_takeaway', 'restaurant', 'food', 'point_of_interest', 'establishment']",ChIJU2MoP4kLkEcR2dPeos4Wc1M,8001,https://www.coop.ch/de/services/standorte-und-oeffnungszeiten/detail.html/5668/,,,
Coop ToGo Zrich Neugasse,"Neugasse 50, Zrich",47.3827483,8.5296886,"['meal_takeaway', 'restaurant', 'food', 'point_of_interest', 'establishment']",ChIJf5lp0hMKkEcRsh8jWpKbG5Q,8005,https://www.coop.ch/de/services/standorte-und-oeffnungszeiten/detail.html/5218/,,,
Coop Pronto Shop,"Hohlstrasse 560, Zrich",47.3909986,8.489169,"['supermarket', 'grocery_or_supermarket', 'food', 'point_of_interest', 'store', 'establishment']",ChIJQcDww7cLkEcRsYKZzJ28k90,8048,https://www.coop-pronto.ch/de/standort/zuerich-hohlstrasse/,,,
Coop,"Hohlstrasse 461, Zrich",47.3872813,8.4984865,"['gas_station', 'supermarket', 'grocery_or_supermarket', 'food', 'point_of_interest', 'store', 'establishment']",ChIJIRaoKTUKkEcRQUaW6jdZfME,8048,https://www.coop-pronto.ch/de/standort/zuerich-letzipark/,,,
Coop Bau+Hobby Zrich Letzipark,"Baslerstrasse 50, Zrich",47.3870263,8.4996428,"['furniture_store', 'home_goods_store', 'point_of_interest', 'store', 'establishment']",ChIJ7-A0MDEKkEcRAaRifaIjC8U,8066,https://www.bauundhobby.ch/standorte/zuerich/s/3299_POS,,,
Coop Vitality Zrich Letzipark,"Baslerstrasse 50, Zrich",47.3875611,8.497703399999999,"['pharmacy', 'health', 'point_of_interest', 'store', 'establishment']",ChIJzVY32zQKkEcReeKHBI3yASA,8066,https://www.coopvitality.ch/de/4516,,,
Coop Take it Zrich Letzipark,"Baslerstrasse 50, Zrich",47.3875611,8.497703399999999,"['meal_takeaway', 'restaurant', 'food', 'point_of_interest', 'establishment']",ChIJpw_N7jQKkEcRdH9zBB5VTho,8066,https://www.coop.ch/de/services/standorte-und-oeffnungszeiten/detail.html/2167/,,,
Coop ToGo Letzipark,"Baslerstrasse 50, Zrich",47.38681099999999,8.4993207,"['meal_takeaway', 'restaurant', 'food', 'point_of_interest', 'establishment']",ChIJF_Z10DQKkEcRJNe9Pd-k_As,8066,https://www.coop.ch/de/services/standorte-und-oeffnungszeiten/detail.html/5327/,,,
coop@home - Drive In Sihlquai,"Sihlquai 306, Zrich",47.3901296,8.5260277,"['food', 'point_of_interest', 'establishment']",ChIJoSpJVGoKkEcRAUhu5y12ReU,8005,http://www.coopathome.ch/,,,
Coop Pronto Shop mit Tankstelle,"Zrcherstrasse 229, Dietikon",47.3973059,8.427216,"['gas_station', 'supermarket', 'grocery_or_supermarket', 'food', 'point_of_interest', 'store', 'establishment']",ChIJtYSpHwgNkEcRRKMI4-aLVJs,8953,https://www.coop-pronto.ch/de/standort/dietikon-zuercherstrasse/,,,
Coop Pronto Shop,"Badenerstrasse 812, Zrich",47.3933164,8.474460500000001,"['supermarket', 'grocery_or_supermarket', 'food', 'point_of_interest', 'store', 'establishment']",ChIJ2Ud27RcLkEcRfndVpo-Fkac,8048,https://www.coop-pronto.ch/de/standort/zuerich-altstetten/,,,
Coop Shop Tankstelle,"Badenerstrasse 812, Zrich",47.393296,8.4745346,"['gas_station', 'point_of_interest', 'establishment']",ChIJmchPcJULkEcR6G3Qzk4zYqM,8048,,,,
Coop City Outlet Coop Letzipark,"Baslerstrasse 50, Zrich",47.3875611,8.497703399999999,"['department_store', 'point_of_interest', 'store', 'establishment']",ChIJ9yNyFqcLkEcRR2FgI03Z2uA,8066,https://www.coop.ch/de/services/standorte-und-oeffnungszeiten/detail.html/5929/,,,
Coop Da Giovanni,"Maagpl. 7, Zrich",47.3910306,8.5083579,"['food', 'point_of_interest', 'store', 'establishment']",ChIJVVVVVUgKkEcRx3pLEPXEayc,8005,,,,
Coop Pronto Shop,"Bahnhofstrasse 2, Schlieren",47.3982383,8.4484853,"['supermarket', 'grocery_or_supermarket', 'food', 'point_of_interest', 'store', 'establishment']",ChIJ18uPi6wNkEcR_IYJvo6SLPE,8952,https://www.coop-pronto.ch/de/standort/schlieren/,,,
Coop Restaurant Schlieren Lilien,"Zrcherstrasse 6, Schlieren",47.3973601,8.4487969,"['restaurant', 'food', 'point_of_interest', 'establishment']",ChIJhSC-NZILkEcRIRKGrfOOVeQ,8952,https://www.coop.ch/de/services/standorte-und-oeffnungszeiten/detail.html/2088/,,,
Coop Pronto Shop mit Tankstelle,"Am Wasser 146, Zrich",47.399702,8.4972645,"['gas_station', 'supermarket', 'grocery_or_supermarket', 'food', 'point_of_interest', 'store', 'establishment']",ChIJc-X3iq0LkEcRvzvTpqPE-2o,8049,https://www.coop-pronto.ch/de/standort/zuerich-hoengg/,,,
Coop Bau+Hobby Dbendorf,"Neugutstrasse 88, Dbendorf",47.4012122,8.6051921,"['furniture_store', 'home_goods_store', 'point_of_interest', 'store', 'establishment']",ChIJTydhpwChmkcR72MZ1A9OIlI,8600,https://www.bauundhobby.ch/standorte/duebendorf/s/2015_POS,,,
LIVIQUE Dbendorf Wohnland,"Hochbordstrasse 8, Dbendorf",47.40188,8.600885,"['furniture_store', 'home_goods_store', 'point_of_interest', 'store', 'establishment']",ChIJNzM4qKqhmkcRUHoZguPjSTc,8600,https://www.livique.ch/,,,
Coop ToGo Zrich ETH Fusion,"Vladimir-Prelog-Weg 10, Zrich",47.4077416,8.50781,"['meal_takeaway', 'restaurant', 'food', 'point_of_interest', 'establishment']",ChIJL2dRhlUKkEcRh0dxKRUsP6Q,8049,https://www.coop.ch/de/services/standorte-und-oeffnungszeiten/detail.html/5030/,,,
Coop Supermarkt Zrich Schwamendingen,"Saatlenstrasse 12, Zrich",47.4049187,8.5716678,"['supermarket', 'grocery_or_supermarket', 'food', 'point_of_interest', 'store', 'establishment']",ChIJ-0XXwWGgmkcRUk9DeQ9cDqo,8051,https://www.coop.ch/de/standorte/coop-supermarkt-zuerich-schwamendingen/2359_POS,,,
Coop Bau+Hobby Zrich Oerlikon Eleven,"Sophie-Taeuber-Strasse 4, Zrich",47.4130115,8.540592199999999,"['furniture_store', 'home_goods_store', 'point_of_interest', 'store', 'establishment']",ChIJqfF-Eo8KkEcREb52B1p41AE,8050,https://www.bauundhobby.ch/standorte/zuerich/s/2249_POS,,,
Coop Vitality Oerlikon,"Sophie-Taeuber-Strasse 4, Zrich",47.4130115,8.540592199999999,"['pharmacy', 'health', 'point_of_interest', 'store', 'establishment']",ChIJk3synY8KkEcROaLTf-UQbOI,8050,https://www.coopvitality.ch/de/5577,,,
Coop Restaurant,"Sophie-Taeuber-Strasse 5, Zrich",47.4135444,8.5410912,"['restaurant', 'food', 'point_of_interest', 'establishment']",ChIJYb0jn48KkEcRBBkVxJylbFo,8050,http://www.coop.ch/de/services/standorte-und-oeffnungszeiten/detail.html/zuerich-eleven?id=5080,,,
Coop ToGo Zrich Oerlikon Bhf,"Schaffhauserstrasse 389, Zrich",47.412451,8.5454467,"['meal_takeaway', 'restaurant', 'food', 'point_of_interest', 'establishment']",ChIJR-z6t4UKkEcR9LzSaPVDDbo,8050,https://www.coop.ch/de/services/standorte-und-oeffnungszeiten/detail.html/5079/,,,
Coop Blumen Shop,"Coop Center Eleven, Sophie-Taeuber-Strasse 4, Zrich",47.4136607,8.5408841,"['point_of_interest', 'establishment']",ChIJQ_lYXSYLkEcRMAeeiwXKPjc,8050,https://www.coop.ch/de/standorte/coop-supermarkt-zuerich-eleven/2250_POS,,,
Coop Kiosk,"Sophie-Taeuber-Strasse 4, Zrich",47.4130115,8.540592199999999,"['point_of_interest', 'store', 'establishment']",ChIJHXXy51oLkEcRUBGyPA7l35Q,8050,https://www.coop.ch/de/unternehmen/standorte-und-oeffnungszeiten/detail.html/2250/,,,
Coop Vitality Opfikon,"Boulevard Lilienthal 12, Opfikon",47.4239146,8.5620327,"['pharmacy', 'health', 'point_of_interest', 'store', 'establishment']",ChIJp5h-znSgmkcRSRwJms7rG0c,8152,https://www.coopvitality.ch/de/5166,,,
Coop Vitality Wallisellen,"Bahnhofpl. 2, Wallisellen",47.4129254,8.5934135,"['pharmacy', 'health', 'point_of_interest', 'store', 'establishment']",ChIJ7S38w0-gmkcRgcEk3SwHv_A,8304,https://www.coopvitality.ch/de/5317,,,
Coop Pronto Shop mit Tankstelle,"Schaffhauserstrasse 29, Opfikon",47.429355,8.5590463,"['gas_station', 'supermarket', 'grocery_or_supermarket', 'food', 'point_of_interest', 'store', 'establishment']",ChIJr7HeqqAKkEcR2cbR7mxntWM,8152,https://www.coop-pronto.ch/de/standort/glattbrugg/,,,
